<?xml version="1.0" encoding="UTF-8"?>
<gpx xmlns:xsi="http://www.w3.org/2001/XMLSchema-instance" xsi:schemaLocation="http://www.topografix.com/GPX/1/1 http://www.topografix.com/GPX/1/1/gpx.xsd" creator="StravaGPX" version="1.1" xmlns="http://www.topografix.com/GPX/1/1">
 <metadata>
  <time>2021-03-10T22:22:48Z</time>
 </metadata>
 <trk>
  <name>cool down run</name>
  <type>running</type>
  <trkseg>
   <trkpt lat="43.6563940" lon="-79.4078390">
    <ele>105.7</ele>
    <time>2021-03-10T22:22:48Z</time>
   </trkpt>
   <trkpt lat="43.6563890" lon="-79.4078540">
    <ele>105.7</ele>
    <time>2021-03-10T22:22:49Z</time>
   </trkpt>
   <trkpt lat="43.6563860" lon="-79.4078750">
    <ele>105.7</ele>
    <time>2021-03-10T22:22:50Z</time>
   </trkpt>
   <trkpt lat="43.6563720" lon="-79.4079240">
    <ele>105.7</ele>
    <time>2021-03-10T22:22:51Z</time>
   </trkpt>
   <trkpt lat="43.6563650" lon="-79.4079410">
    <ele>105.7</ele>
    <time>2021-03-10T22:22:52Z</time>
   </trkpt>
   <trkpt lat="43.6563400" lon="-79.4079710">
    <ele>105.6</ele>
    <time>2021-03-10T22:22:53Z</time>
   </trkpt>
   <trkpt lat="43.6563340" lon="-79.4079920">
    <ele>105.6</ele>
    <time>2021-03-10T22:22:54Z</time>
   </trkpt>
   <trkpt lat="43.6563300" lon="-79.4080150">
    <ele>105.6</ele>
    <time>2021-03-10T22:22:55Z</time>
   </trkpt>
   <trkpt lat="43.6563340" lon="-79.4080670">
    <ele>105.6</ele>
    <time>2021-03-10T22:22:56Z</time>
   </trkpt>
   <trkpt lat="43.6563350" lon="-79.4080910">
    <ele>105.6</ele>
    <time>2021-03-10T22:22:57Z</time>
   </trkpt>
   <trkpt lat="43.6563310" lon="-79.4081380">
    <ele>105.6</ele>
    <time>2021-03-10T22:22:58Z</time>
   </trkpt>
   <trkpt lat="43.6563280" lon="-79.4081510">
    <ele>105.6</ele>
    <time>2021-03-10T22:22:59Z</time>
   </trkpt>
   <trkpt lat="43.6563190" lon="-79.4081990">
    <ele>105.6</ele>
    <time>2021-03-10T22:23:00Z</time>
   </trkpt>
   <trkpt lat="43.6563150" lon="-79.4082170">
    <ele>105.5</ele>
    <time>2021-03-10T22:23:01Z</time>
   </trkpt>
   <trkpt lat="43.6562900" lon="-79.4082480">
    <ele>105.5</ele>
    <time>2021-03-10T22:23:02Z</time>
   </trkpt>
   <trkpt lat="43.6562770" lon="-79.4082620">
    <ele>105.5</ele>
    <time>2021-03-10T22:23:03Z</time>
   </trkpt>
   <trkpt lat="43.6562520" lon="-79.4082770">
    <ele>105.5</ele>
    <time>2021-03-10T22:23:04Z</time>
   </trkpt>
   <trkpt lat="43.6562360" lon="-79.4083100">
    <ele>105.5</ele>
    <time>2021-03-10T22:23:05Z</time>
   </trkpt>
   <trkpt lat="43.6562170" lon="-79.4083620">
    <ele>105.5</ele>
    <time>2021-03-10T22:23:06Z</time>
   </trkpt>
   <trkpt lat="43.6562100" lon="-79.4083810">
    <ele>105.5</ele>
    <time>2021-03-10T22:23:07Z</time>
   </trkpt>
   <trkpt lat="43.6561960" lon="-79.4084200">
    <ele>105.5</ele>
    <time>2021-03-10T22:23:08Z</time>
   </trkpt>
   <trkpt lat="43.6561930" lon="-79.4084290">
    <ele>105.5</ele>
    <time>2021-03-10T22:23:09Z</time>
   </trkpt>
   <trkpt lat="43.6561810" lon="-79.4084670">
    <ele>105.5</ele>
    <time>2021-03-10T22:23:10Z</time>
   </trkpt>
   <trkpt lat="43.6561760" lon="-79.4084790">
    <ele>105.5</ele>
    <time>2021-03-10T22:23:11Z</time>
   </trkpt>
   <trkpt lat="43.6561680" lon="-79.4084980">
    <ele>105.5</ele>
    <time>2021-03-10T22:23:12Z</time>
   </trkpt>
   <trkpt lat="43.6561640" lon="-79.4085160">
    <ele>105.5</ele>
    <time>2021-03-10T22:23:13Z</time>
   </trkpt>
   <trkpt lat="43.6561550" lon="-79.4085380">
    <ele>105.5</ele>
    <time>2021-03-10T22:23:14Z</time>
   </trkpt>
   <trkpt lat="43.6561500" lon="-79.4085490">
    <ele>105.5</ele>
    <time>2021-03-10T22:23:15Z</time>
   </trkpt>
   <trkpt lat="43.6561450" lon="-79.4085610">
    <ele>105.5</ele>
    <time>2021-03-10T22:23:16Z</time>
   </trkpt>
   <trkpt lat="43.6561330" lon="-79.4086020">
    <ele>105.5</ele>
    <time>2021-03-10T22:23:17Z</time>
   </trkpt>
   <trkpt lat="43.6561260" lon="-79.4086180">
    <ele>105.5</ele>
    <time>2021-03-10T22:23:18Z</time>
   </trkpt>
   <trkpt lat="43.6561130" lon="-79.4086670">
    <ele>105.5</ele>
    <time>2021-03-10T22:23:19Z</time>
   </trkpt>
   <trkpt lat="43.6561100" lon="-79.4086840">
    <ele>105.5</ele>
    <time>2021-03-10T22:23:20Z</time>
   </trkpt>
   <trkpt lat="43.6560980" lon="-79.4087340">
    <ele>105.5</ele>
    <time>2021-03-10T22:23:21Z</time>
   </trkpt>
   <trkpt lat="43.6561070" lon="-79.4087760">
    <ele>105.5</ele>
    <time>2021-03-10T22:23:22Z</time>
   </trkpt>
   <trkpt lat="43.6561100" lon="-79.4088190">
    <ele>105.5</ele>
    <time>2021-03-10T22:23:23Z</time>
   </trkpt>
   <trkpt lat="43.6561100" lon="-79.4088610">
    <ele>105.5</ele>
    <time>2021-03-10T22:23:24Z</time>
   </trkpt>
   <trkpt lat="43.6560990" lon="-79.4089060">
    <ele>105.5</ele>
    <time>2021-03-10T22:23:25Z</time>
   </trkpt>
   <trkpt lat="43.6560900" lon="-79.4089480">
    <ele>105.5</ele>
    <time>2021-03-10T22:23:26Z</time>
   </trkpt>
   <trkpt lat="43.6560830" lon="-79.4089880">
    <ele>105.7</ele>
    <time>2021-03-10T22:23:27Z</time>
   </trkpt>
   <trkpt lat="43.6560710" lon="-79.4090250">
    <ele>105.6</ele>
    <time>2021-03-10T22:23:28Z</time>
   </trkpt>
   <trkpt lat="43.6560760" lon="-79.4090630">
    <ele>105.6</ele>
    <time>2021-03-10T22:23:29Z</time>
   </trkpt>
   <trkpt lat="43.6560790" lon="-79.4091070">
    <ele>105.6</ele>
    <time>2021-03-10T22:23:30Z</time>
   </trkpt>
   <trkpt lat="43.6560830" lon="-79.4091450">
    <ele>105.6</ele>
    <time>2021-03-10T22:23:31Z</time>
   </trkpt>
   <trkpt lat="43.6560770" lon="-79.4091880">
    <ele>105.7</ele>
    <time>2021-03-10T22:23:32Z</time>
   </trkpt>
   <trkpt lat="43.6560680" lon="-79.4092390">
    <ele>105.7</ele>
    <time>2021-03-10T22:23:33Z</time>
   </trkpt>
   <trkpt lat="43.6560670" lon="-79.4092810">
    <ele>105.7</ele>
    <time>2021-03-10T22:23:34Z</time>
   </trkpt>
   <trkpt lat="43.6560600" lon="-79.4093360">
    <ele>105.7</ele>
    <time>2021-03-10T22:23:35Z</time>
   </trkpt>
   <trkpt lat="43.6560680" lon="-79.4093920">
    <ele>105.7</ele>
    <time>2021-03-10T22:23:36Z</time>
   </trkpt>
   <trkpt lat="43.6560700" lon="-79.4094130">
    <ele>105.7</ele>
    <time>2021-03-10T22:23:37Z</time>
   </trkpt>
   <trkpt lat="43.6560800" lon="-79.4094640">
    <ele>105.7</ele>
    <time>2021-03-10T22:23:38Z</time>
   </trkpt>
   <trkpt lat="43.6560810" lon="-79.4094800">
    <ele>105.7</ele>
    <time>2021-03-10T22:23:39Z</time>
   </trkpt>
   <trkpt lat="43.6560700" lon="-79.4095180">
    <ele>105.8</ele>
    <time>2021-03-10T22:23:40Z</time>
   </trkpt>
   <trkpt lat="43.6560690" lon="-79.4095560">
    <ele>105.8</ele>
    <time>2021-03-10T22:23:41Z</time>
   </trkpt>
   <trkpt lat="43.6560630" lon="-79.4095720">
    <ele>105.8</ele>
    <time>2021-03-10T22:23:42Z</time>
   </trkpt>
   <trkpt lat="43.6560520" lon="-79.4096190">
    <ele>105.8</ele>
    <time>2021-03-10T22:23:43Z</time>
   </trkpt>
   <trkpt lat="43.6560460" lon="-79.4096380">
    <ele>105.8</ele>
    <time>2021-03-10T22:23:44Z</time>
   </trkpt>
   <trkpt lat="43.6560380" lon="-79.4096780">
    <ele>105.8</ele>
    <time>2021-03-10T22:23:45Z</time>
   </trkpt>
   <trkpt lat="43.6560310" lon="-79.4097300">
    <ele>105.9</ele>
    <time>2021-03-10T22:23:46Z</time>
   </trkpt>
   <trkpt lat="43.6560320" lon="-79.4097490">
    <ele>105.9</ele>
    <time>2021-03-10T22:23:47Z</time>
   </trkpt>
   <trkpt lat="43.6560370" lon="-79.4097970">
    <ele>105.9</ele>
    <time>2021-03-10T22:23:48Z</time>
   </trkpt>
   <trkpt lat="43.6560370" lon="-79.4098160">
    <ele>105.9</ele>
    <time>2021-03-10T22:23:49Z</time>
   </trkpt>
   <trkpt lat="43.6560370" lon="-79.4098550">
    <ele>105.9</ele>
    <time>2021-03-10T22:23:50Z</time>
   </trkpt>
   <trkpt lat="43.6560240" lon="-79.4099090">
    <ele>105.9</ele>
    <time>2021-03-10T22:23:51Z</time>
   </trkpt>
   <trkpt lat="43.6560120" lon="-79.4099610">
    <ele>105.9</ele>
    <time>2021-03-10T22:23:52Z</time>
   </trkpt>
   <trkpt lat="43.6560090" lon="-79.4100000">
    <ele>105.9</ele>
    <time>2021-03-10T22:23:53Z</time>
   </trkpt>
   <trkpt lat="43.6560000" lon="-79.4100450">
    <ele>106.0</ele>
    <time>2021-03-10T22:23:54Z</time>
   </trkpt>
   <trkpt lat="43.6559970" lon="-79.4100610">
    <ele>106.0</ele>
    <time>2021-03-10T22:23:55Z</time>
   </trkpt>
   <trkpt lat="43.6559920" lon="-79.4101000">
    <ele>106.0</ele>
    <time>2021-03-10T22:23:56Z</time>
   </trkpt>
   <trkpt lat="43.6559720" lon="-79.4101330">
    <ele>106.0</ele>
    <time>2021-03-10T22:23:57Z</time>
   </trkpt>
   <trkpt lat="43.6559630" lon="-79.4101380">
    <ele>106.0</ele>
    <time>2021-03-10T22:23:58Z</time>
   </trkpt>
   <trkpt lat="43.6559500" lon="-79.4101550">
    <ele>106.0</ele>
    <time>2021-03-10T22:23:59Z</time>
   </trkpt>
   <trkpt lat="43.6559460" lon="-79.4101790">
    <ele>106.0</ele>
    <time>2021-03-10T22:24:00Z</time>
   </trkpt>
   <trkpt lat="43.6559420" lon="-79.4102220">
    <ele>106.0</ele>
    <time>2021-03-10T22:24:01Z</time>
   </trkpt>
   <trkpt lat="43.6559390" lon="-79.4102380">
    <ele>106.0</ele>
    <time>2021-03-10T22:24:02Z</time>
   </trkpt>
   <trkpt lat="43.6559290" lon="-79.4102850">
    <ele>106.0</ele>
    <time>2021-03-10T22:24:03Z</time>
   </trkpt>
   <trkpt lat="43.6559250" lon="-79.4102990">
    <ele>106.0</ele>
    <time>2021-03-10T22:24:04Z</time>
   </trkpt>
   <trkpt lat="43.6559110" lon="-79.4103390">
    <ele>106.0</ele>
    <time>2021-03-10T22:24:05Z</time>
   </trkpt>
   <trkpt lat="43.6559060" lon="-79.4103570">
    <ele>106.0</ele>
    <time>2021-03-10T22:24:06Z</time>
   </trkpt>
   <trkpt lat="43.6559000" lon="-79.4104030">
    <ele>106.0</ele>
    <time>2021-03-10T22:24:07Z</time>
   </trkpt>
   <trkpt lat="43.6558960" lon="-79.4104450">
    <ele>106.0</ele>
    <time>2021-03-10T22:24:08Z</time>
   </trkpt>
   <trkpt lat="43.6558940" lon="-79.4104900">
    <ele>106.0</ele>
    <time>2021-03-10T22:24:09Z</time>
   </trkpt>
   <trkpt lat="43.6558880" lon="-79.4105330">
    <ele>106.0</ele>
    <time>2021-03-10T22:24:10Z</time>
   </trkpt>
   <trkpt lat="43.6558810" lon="-79.4105740">
    <ele>106.0</ele>
    <time>2021-03-10T22:24:11Z</time>
   </trkpt>
   <trkpt lat="43.6558720" lon="-79.4106200">
    <ele>106.1</ele>
    <time>2021-03-10T22:24:12Z</time>
   </trkpt>
   <trkpt lat="43.6558630" lon="-79.4106630">
    <ele>106.1</ele>
    <time>2021-03-10T22:24:13Z</time>
   </trkpt>
   <trkpt lat="43.6558520" lon="-79.4107020">
    <ele>106.1</ele>
    <time>2021-03-10T22:24:14Z</time>
   </trkpt>
   <trkpt lat="43.6558460" lon="-79.4107460">
    <ele>106.1</ele>
    <time>2021-03-10T22:24:15Z</time>
   </trkpt>
   <trkpt lat="43.6558450" lon="-79.4107590">
    <ele>106.1</ele>
    <time>2021-03-10T22:24:16Z</time>
   </trkpt>
   <trkpt lat="43.6558420" lon="-79.4107970">
    <ele>106.1</ele>
    <time>2021-03-10T22:24:17Z</time>
   </trkpt>
   <trkpt lat="43.6558410" lon="-79.4108150">
    <ele>106.1</ele>
    <time>2021-03-10T22:24:18Z</time>
   </trkpt>
   <trkpt lat="43.6558380" lon="-79.4108640">
    <ele>106.1</ele>
    <time>2021-03-10T22:24:19Z</time>
   </trkpt>
   <trkpt lat="43.6558370" lon="-79.4108830">
    <ele>106.1</ele>
    <time>2021-03-10T22:24:20Z</time>
   </trkpt>
   <trkpt lat="43.6558310" lon="-79.4109220">
    <ele>106.1</ele>
    <time>2021-03-10T22:24:21Z</time>
   </trkpt>
   <trkpt lat="43.6558260" lon="-79.4109350">
    <ele>106.1</ele>
    <time>2021-03-10T22:24:22Z</time>
   </trkpt>
   <trkpt lat="43.6558220" lon="-79.4109780">
    <ele>106.1</ele>
    <time>2021-03-10T22:24:23Z</time>
   </trkpt>
   <trkpt lat="43.6558130" lon="-79.4110210">
    <ele>106.1</ele>
    <time>2021-03-10T22:24:24Z</time>
   </trkpt>
   <trkpt lat="43.6558080" lon="-79.4110350">
    <ele>106.2</ele>
    <time>2021-03-10T22:24:25Z</time>
   </trkpt>
   <trkpt lat="43.6557950" lon="-79.4110810">
    <ele>106.2</ele>
    <time>2021-03-10T22:24:26Z</time>
   </trkpt>
   <trkpt lat="43.6557870" lon="-79.4110940">
    <ele>106.2</ele>
    <time>2021-03-10T22:24:27Z</time>
   </trkpt>
   <trkpt lat="43.6557640" lon="-79.4111290">
    <ele>106.2</ele>
    <time>2021-03-10T22:24:28Z</time>
   </trkpt>
   <trkpt lat="43.6557340" lon="-79.4111700">
    <ele>106.2</ele>
    <time>2021-03-10T22:24:29Z</time>
   </trkpt>
   <trkpt lat="43.6557200" lon="-79.4111820">
    <ele>106.2</ele>
    <time>2021-03-10T22:24:30Z</time>
   </trkpt>
   <trkpt lat="43.6557010" lon="-79.4112170">
    <ele>106.2</ele>
    <time>2021-03-10T22:24:31Z</time>
   </trkpt>
   <trkpt lat="43.6556950" lon="-79.4112280">
    <ele>106.3</ele>
    <time>2021-03-10T22:24:32Z</time>
   </trkpt>
   <trkpt lat="43.6556830" lon="-79.4112360">
    <ele>106.3</ele>
    <time>2021-03-10T22:24:33Z</time>
   </trkpt>
   <trkpt lat="43.6556650" lon="-79.4112540">
    <ele>106.1</ele>
    <time>2021-03-10T22:24:34Z</time>
   </trkpt>
   <trkpt lat="43.6556500" lon="-79.4112520">
    <ele>106.1</ele>
    <time>2021-03-10T22:24:35Z</time>
   </trkpt>
   <trkpt lat="43.6556380" lon="-79.4112400">
    <ele>106.0</ele>
    <time>2021-03-10T22:24:36Z</time>
   </trkpt>
   <trkpt lat="43.6556300" lon="-79.4112450">
    <ele>106.0</ele>
    <time>2021-03-10T22:24:37Z</time>
   </trkpt>
   <trkpt lat="43.6556090" lon="-79.4112360">
    <ele>106.0</ele>
    <time>2021-03-10T22:24:38Z</time>
   </trkpt>
   <trkpt lat="43.6555810" lon="-79.4112160">
    <ele>106.0</ele>
    <time>2021-03-10T22:24:39Z</time>
   </trkpt>
   <trkpt lat="43.6555400" lon="-79.4111970">
    <ele>105.9</ele>
    <time>2021-03-10T22:24:40Z</time>
   </trkpt>
   <trkpt lat="43.6555220" lon="-79.4111900">
    <ele>105.9</ele>
    <time>2021-03-10T22:24:41Z</time>
   </trkpt>
   <trkpt lat="43.6554960" lon="-79.4111700">
    <ele>105.9</ele>
    <time>2021-03-10T22:24:42Z</time>
   </trkpt>
   <trkpt lat="43.6554690" lon="-79.4111440">
    <ele>105.8</ele>
    <time>2021-03-10T22:24:43Z</time>
   </trkpt>
   <trkpt lat="43.6554320" lon="-79.4111380">
    <ele>105.8</ele>
    <time>2021-03-10T22:24:44Z</time>
   </trkpt>
   <trkpt lat="43.6553910" lon="-79.4111420">
    <ele>105.8</ele>
    <time>2021-03-10T22:24:45Z</time>
   </trkpt>
   <trkpt lat="43.6553730" lon="-79.4111340">
    <ele>105.8</ele>
    <time>2021-03-10T22:24:46Z</time>
   </trkpt>
   <trkpt lat="43.6553610" lon="-79.4111250">
    <ele>105.7</ele>
    <time>2021-03-10T22:24:47Z</time>
   </trkpt>
   <trkpt lat="43.6553270" lon="-79.4111250">
    <ele>105.7</ele>
    <time>2021-03-10T22:24:48Z</time>
   </trkpt>
   <trkpt lat="43.6553160" lon="-79.4111250">
    <ele>105.7</ele>
    <time>2021-03-10T22:24:49Z</time>
   </trkpt>
   <trkpt lat="43.6552840" lon="-79.4111400">
    <ele>105.7</ele>
    <time>2021-03-10T22:24:50Z</time>
   </trkpt>
   <trkpt lat="43.6552490" lon="-79.4111500">
    <ele>105.7</ele>
    <time>2021-03-10T22:24:51Z</time>
   </trkpt>
   <trkpt lat="43.6552170" lon="-79.4111480">
    <ele>105.6</ele>
    <time>2021-03-10T22:24:52Z</time>
   </trkpt>
   <trkpt lat="43.6551860" lon="-79.4111500">
    <ele>105.6</ele>
    <time>2021-03-10T22:24:53Z</time>
   </trkpt>
   <trkpt lat="43.6551550" lon="-79.4111570">
    <ele>105.5</ele>
    <time>2021-03-10T22:24:54Z</time>
   </trkpt>
   <trkpt lat="43.6551230" lon="-79.4111530">
    <ele>105.5</ele>
    <time>2021-03-10T22:24:55Z</time>
   </trkpt>
   <trkpt lat="43.6551140" lon="-79.4111490">
    <ele>105.4</ele>
    <time>2021-03-10T22:24:56Z</time>
   </trkpt>
   <trkpt lat="43.6550840" lon="-79.4111350">
    <ele>105.4</ele>
    <time>2021-03-10T22:24:57Z</time>
   </trkpt>
   <trkpt lat="43.6550570" lon="-79.4111280">
    <ele>105.3</ele>
    <time>2021-03-10T22:24:58Z</time>
   </trkpt>
   <trkpt lat="43.6550290" lon="-79.4111160">
    <ele>105.3</ele>
    <time>2021-03-10T22:24:59Z</time>
   </trkpt>
   <trkpt lat="43.6550030" lon="-79.4111010">
    <ele>105.3</ele>
    <time>2021-03-10T22:25:00Z</time>
   </trkpt>
   <trkpt lat="43.6549720" lon="-79.4110830">
    <ele>105.2</ele>
    <time>2021-03-10T22:25:01Z</time>
   </trkpt>
   <trkpt lat="43.6549400" lon="-79.4110620">
    <ele>105.2</ele>
    <time>2021-03-10T22:25:02Z</time>
   </trkpt>
   <trkpt lat="43.6549070" lon="-79.4110540">
    <ele>105.1</ele>
    <time>2021-03-10T22:25:03Z</time>
   </trkpt>
   <trkpt lat="43.6548710" lon="-79.4110470">
    <ele>105.1</ele>
    <time>2021-03-10T22:25:04Z</time>
   </trkpt>
   <trkpt lat="43.6548400" lon="-79.4110370">
    <ele>105.1</ele>
    <time>2021-03-10T22:25:05Z</time>
   </trkpt>
   <trkpt lat="43.6548120" lon="-79.4110170">
    <ele>105.1</ele>
    <time>2021-03-10T22:25:06Z</time>
   </trkpt>
   <trkpt lat="43.6547830" lon="-79.4110100">
    <ele>105.0</ele>
    <time>2021-03-10T22:25:07Z</time>
   </trkpt>
   <trkpt lat="43.6547500" lon="-79.4110040">
    <ele>105.0</ele>
    <time>2021-03-10T22:25:08Z</time>
   </trkpt>
   <trkpt lat="43.6547220" lon="-79.4110000">
    <ele>105.0</ele>
    <time>2021-03-10T22:25:09Z</time>
   </trkpt>
   <trkpt lat="43.6546980" lon="-79.4109820">
    <ele>105.0</ele>
    <time>2021-03-10T22:25:10Z</time>
   </trkpt>
   <trkpt lat="43.6546580" lon="-79.4109660">
    <ele>105.0</ele>
    <time>2021-03-10T22:25:11Z</time>
   </trkpt>
   <trkpt lat="43.6546430" lon="-79.4109620">
    <ele>105.0</ele>
    <time>2021-03-10T22:25:12Z</time>
   </trkpt>
   <trkpt lat="43.6546130" lon="-79.4109580">
    <ele>104.9</ele>
    <time>2021-03-10T22:25:13Z</time>
   </trkpt>
   <trkpt lat="43.6545830" lon="-79.4109510">
    <ele>104.9</ele>
    <time>2021-03-10T22:25:14Z</time>
   </trkpt>
   <trkpt lat="43.6545740" lon="-79.4109470">
    <ele>104.9</ele>
    <time>2021-03-10T22:25:15Z</time>
   </trkpt>
   <trkpt lat="43.6545590" lon="-79.4109420">
    <ele>104.9</ele>
    <time>2021-03-10T22:25:16Z</time>
   </trkpt>
   <trkpt lat="43.6545390" lon="-79.4109360">
    <ele>104.9</ele>
    <time>2021-03-10T22:25:17Z</time>
   </trkpt>
   <trkpt lat="43.6545020" lon="-79.4109210">
    <ele>104.9</ele>
    <time>2021-03-10T22:25:18Z</time>
   </trkpt>
   <trkpt lat="43.6544910" lon="-79.4109120">
    <ele>104.9</ele>
    <time>2021-03-10T22:25:19Z</time>
   </trkpt>
   <trkpt lat="43.6544630" lon="-79.4109010">
    <ele>104.9</ele>
    <time>2021-03-10T22:25:20Z</time>
   </trkpt>
   <trkpt lat="43.6544300" lon="-79.4108820">
    <ele>104.9</ele>
    <time>2021-03-10T22:25:21Z</time>
   </trkpt>
   <trkpt lat="43.6544180" lon="-79.4108780">
    <ele>104.9</ele>
    <time>2021-03-10T22:25:22Z</time>
   </trkpt>
   <trkpt lat="43.6543850" lon="-79.4108640">
    <ele>104.9</ele>
    <time>2021-03-10T22:25:23Z</time>
   </trkpt>
   <trkpt lat="43.6543730" lon="-79.4108600">
    <ele>104.9</ele>
    <time>2021-03-10T22:25:24Z</time>
   </trkpt>
   <trkpt lat="43.6543370" lon="-79.4108490">
    <ele>104.8</ele>
    <time>2021-03-10T22:25:25Z</time>
   </trkpt>
   <trkpt lat="43.6543240" lon="-79.4108410">
    <ele>104.8</ele>
    <time>2021-03-10T22:25:26Z</time>
   </trkpt>
   <trkpt lat="43.6542940" lon="-79.4108340">
    <ele>104.8</ele>
    <time>2021-03-10T22:25:27Z</time>
   </trkpt>
   <trkpt lat="43.6542860" lon="-79.4108310">
    <ele>104.8</ele>
    <time>2021-03-10T22:25:28Z</time>
   </trkpt>
   <trkpt lat="43.6542560" lon="-79.4108210">
    <ele>104.8</ele>
    <time>2021-03-10T22:25:29Z</time>
   </trkpt>
   <trkpt lat="43.6542440" lon="-79.4108190">
    <ele>104.8</ele>
    <time>2021-03-10T22:25:30Z</time>
   </trkpt>
   <trkpt lat="43.6542050" lon="-79.4107980">
    <ele>104.8</ele>
    <time>2021-03-10T22:25:31Z</time>
   </trkpt>
   <trkpt lat="43.6541900" lon="-79.4107910">
    <ele>104.8</ele>
    <time>2021-03-10T22:25:32Z</time>
   </trkpt>
   <trkpt lat="43.6541540" lon="-79.4107700">
    <ele>104.8</ele>
    <time>2021-03-10T22:25:33Z</time>
   </trkpt>
   <trkpt lat="43.6541420" lon="-79.4107650">
    <ele>104.8</ele>
    <time>2021-03-10T22:25:34Z</time>
   </trkpt>
   <trkpt lat="43.6541070" lon="-79.4107600">
    <ele>104.8</ele>
    <time>2021-03-10T22:25:35Z</time>
   </trkpt>
   <trkpt lat="43.6540960" lon="-79.4107570">
    <ele>104.8</ele>
    <time>2021-03-10T22:25:36Z</time>
   </trkpt>
   <trkpt lat="43.6540650" lon="-79.4107400">
    <ele>104.7</ele>
    <time>2021-03-10T22:25:37Z</time>
   </trkpt>
   <trkpt lat="43.6540390" lon="-79.4107260">
    <ele>104.7</ele>
    <time>2021-03-10T22:25:38Z</time>
   </trkpt>
   <trkpt lat="43.6540120" lon="-79.4107180">
    <ele>104.7</ele>
    <time>2021-03-10T22:25:39Z</time>
   </trkpt>
   <trkpt lat="43.6539730" lon="-79.4106870">
    <ele>104.7</ele>
    <time>2021-03-10T22:25:40Z</time>
   </trkpt>
   <trkpt lat="43.6539540" lon="-79.4106790">
    <ele>104.7</ele>
    <time>2021-03-10T22:25:41Z</time>
   </trkpt>
   <trkpt lat="43.6539160" lon="-79.4106730">
    <ele>104.7</ele>
    <time>2021-03-10T22:25:42Z</time>
   </trkpt>
   <trkpt lat="43.6539030" lon="-79.4106730">
    <ele>104.7</ele>
    <time>2021-03-10T22:25:43Z</time>
   </trkpt>
   <trkpt lat="43.6538730" lon="-79.4106500">
    <ele>104.7</ele>
    <time>2021-03-10T22:25:44Z</time>
   </trkpt>
   <trkpt lat="43.6538600" lon="-79.4106450">
    <ele>104.7</ele>
    <time>2021-03-10T22:25:45Z</time>
   </trkpt>
   <trkpt lat="43.6538300" lon="-79.4106270">
    <ele>104.7</ele>
    <time>2021-03-10T22:25:46Z</time>
   </trkpt>
   <trkpt lat="43.6538200" lon="-79.4106200">
    <ele>104.7</ele>
    <time>2021-03-10T22:25:47Z</time>
   </trkpt>
   <trkpt lat="43.6537890" lon="-79.4106120">
    <ele>104.7</ele>
    <time>2021-03-10T22:25:48Z</time>
   </trkpt>
   <trkpt lat="43.6537780" lon="-79.4106110">
    <ele>104.7</ele>
    <time>2021-03-10T22:25:49Z</time>
   </trkpt>
   <trkpt lat="43.6537480" lon="-79.4106010">
    <ele>104.7</ele>
    <time>2021-03-10T22:25:50Z</time>
   </trkpt>
   <trkpt lat="43.6537380" lon="-79.4105960">
    <ele>104.7</ele>
    <time>2021-03-10T22:25:51Z</time>
   </trkpt>
   <trkpt lat="43.6537100" lon="-79.4105760">
    <ele>104.7</ele>
    <time>2021-03-10T22:25:52Z</time>
   </trkpt>
   <trkpt lat="43.6537010" lon="-79.4105690">
    <ele>104.7</ele>
    <time>2021-03-10T22:25:53Z</time>
   </trkpt>
   <trkpt lat="43.6536710" lon="-79.4105510">
    <ele>104.7</ele>
    <time>2021-03-10T22:25:54Z</time>
   </trkpt>
   <trkpt lat="43.6536590" lon="-79.4105400">
    <ele>104.7</ele>
    <time>2021-03-10T22:25:55Z</time>
   </trkpt>
   <trkpt lat="43.6536310" lon="-79.4105300">
    <ele>104.7</ele>
    <time>2021-03-10T22:25:56Z</time>
   </trkpt>
   <trkpt lat="43.6535900" lon="-79.4105240">
    <ele>104.7</ele>
    <time>2021-03-10T22:25:57Z</time>
   </trkpt>
   <trkpt lat="43.6535730" lon="-79.4105220">
    <ele>104.7</ele>
    <time>2021-03-10T22:25:58Z</time>
   </trkpt>
   <trkpt lat="43.6535340" lon="-79.4105100">
    <ele>104.6</ele>
    <time>2021-03-10T22:25:59Z</time>
   </trkpt>
   <trkpt lat="43.6535200" lon="-79.4105020">
    <ele>104.6</ele>
    <time>2021-03-10T22:26:00Z</time>
   </trkpt>
   <trkpt lat="43.6534920" lon="-79.4104850">
    <ele>104.6</ele>
    <time>2021-03-10T22:26:01Z</time>
   </trkpt>
   <trkpt lat="43.6534590" lon="-79.4104640">
    <ele>104.6</ele>
    <time>2021-03-10T22:26:02Z</time>
   </trkpt>
   <trkpt lat="43.6534490" lon="-79.4104580">
    <ele>104.6</ele>
    <time>2021-03-10T22:26:03Z</time>
   </trkpt>
   <trkpt lat="43.6534150" lon="-79.4104380">
    <ele>104.5</ele>
    <time>2021-03-10T22:26:04Z</time>
   </trkpt>
   <trkpt lat="43.6534020" lon="-79.4104330">
    <ele>104.5</ele>
    <time>2021-03-10T22:26:05Z</time>
   </trkpt>
   <trkpt lat="43.6533630" lon="-79.4104160">
    <ele>104.5</ele>
    <time>2021-03-10T22:26:06Z</time>
   </trkpt>
   <trkpt lat="43.6533460" lon="-79.4104110">
    <ele>104.4</ele>
    <time>2021-03-10T22:26:07Z</time>
   </trkpt>
   <trkpt lat="43.6533120" lon="-79.4103950">
    <ele>104.4</ele>
    <time>2021-03-10T22:26:08Z</time>
   </trkpt>
   <trkpt lat="43.6532830" lon="-79.4103810">
    <ele>104.4</ele>
    <time>2021-03-10T22:26:09Z</time>
   </trkpt>
   <trkpt lat="43.6532490" lon="-79.4103760">
    <ele>104.3</ele>
    <time>2021-03-10T22:26:10Z</time>
   </trkpt>
   <trkpt lat="43.6532210" lon="-79.4103600">
    <ele>104.3</ele>
    <time>2021-03-10T22:26:11Z</time>
   </trkpt>
   <trkpt lat="43.6531950" lon="-79.4103380">
    <ele>104.3</ele>
    <time>2021-03-10T22:26:12Z</time>
   </trkpt>
   <trkpt lat="43.6531560" lon="-79.4103240">
    <ele>104.2</ele>
    <time>2021-03-10T22:26:13Z</time>
   </trkpt>
   <trkpt lat="43.6531420" lon="-79.4103200">
    <ele>104.2</ele>
    <time>2021-03-10T22:26:14Z</time>
   </trkpt>
   <trkpt lat="43.6531030" lon="-79.4103120">
    <ele>104.2</ele>
    <time>2021-03-10T22:26:15Z</time>
   </trkpt>
   <trkpt lat="43.6530880" lon="-79.4103120">
    <ele>104.2</ele>
    <time>2021-03-10T22:26:16Z</time>
   </trkpt>
   <trkpt lat="43.6530580" lon="-79.4103030">
    <ele>104.1</ele>
    <time>2021-03-10T22:26:17Z</time>
   </trkpt>
   <trkpt lat="43.6530250" lon="-79.4102860">
    <ele>104.1</ele>
    <time>2021-03-10T22:26:18Z</time>
   </trkpt>
   <trkpt lat="43.6530120" lon="-79.4102820">
    <ele>104.1</ele>
    <time>2021-03-10T22:26:19Z</time>
   </trkpt>
   <trkpt lat="43.6529730" lon="-79.4102690">
    <ele>104.1</ele>
    <time>2021-03-10T22:26:20Z</time>
   </trkpt>
   <trkpt lat="43.6529580" lon="-79.4102670">
    <ele>104.1</ele>
    <time>2021-03-10T22:26:21Z</time>
   </trkpt>
   <trkpt lat="43.6529260" lon="-79.4102640">
    <ele>104.1</ele>
    <time>2021-03-10T22:26:22Z</time>
   </trkpt>
   <trkpt lat="43.6528880" lon="-79.4102500">
    <ele>104.0</ele>
    <time>2021-03-10T22:26:23Z</time>
   </trkpt>
   <trkpt lat="43.6528750" lon="-79.4102410">
    <ele>104.0</ele>
    <time>2021-03-10T22:26:24Z</time>
   </trkpt>
   <trkpt lat="43.6528500" lon="-79.4102290">
    <ele>104.0</ele>
    <time>2021-03-10T22:26:25Z</time>
   </trkpt>
   <trkpt lat="43.6528150" lon="-79.4102100">
    <ele>104.0</ele>
    <time>2021-03-10T22:26:26Z</time>
   </trkpt>
   <trkpt lat="43.6528030" lon="-79.4102060">
    <ele>104.0</ele>
    <time>2021-03-10T22:26:27Z</time>
   </trkpt>
   <trkpt lat="43.6527780" lon="-79.4101910">
    <ele>104.0</ele>
    <time>2021-03-10T22:26:28Z</time>
   </trkpt>
   <trkpt lat="43.6527460" lon="-79.4101880">
    <ele>104.0</ele>
    <time>2021-03-10T22:26:29Z</time>
   </trkpt>
   <trkpt lat="43.6527210" lon="-79.4101650">
    <ele>104.0</ele>
    <time>2021-03-10T22:26:30Z</time>
   </trkpt>
   <trkpt lat="43.6526880" lon="-79.4101420">
    <ele>103.9</ele>
    <time>2021-03-10T22:26:31Z</time>
   </trkpt>
   <trkpt lat="43.6526740" lon="-79.4101350">
    <ele>103.9</ele>
    <time>2021-03-10T22:26:32Z</time>
   </trkpt>
   <trkpt lat="43.6526400" lon="-79.4101130">
    <ele>103.9</ele>
    <time>2021-03-10T22:26:33Z</time>
   </trkpt>
   <trkpt lat="43.6526300" lon="-79.4101060">
    <ele>103.9</ele>
    <time>2021-03-10T22:26:34Z</time>
   </trkpt>
   <trkpt lat="43.6526050" lon="-79.4100890">
    <ele>103.9</ele>
    <time>2021-03-10T22:26:35Z</time>
   </trkpt>
   <trkpt lat="43.6525960" lon="-79.4100850">
    <ele>103.8</ele>
    <time>2021-03-10T22:26:36Z</time>
   </trkpt>
   <trkpt lat="43.6525580" lon="-79.4100760">
    <ele>103.8</ele>
    <time>2021-03-10T22:26:37Z</time>
   </trkpt>
   <trkpt lat="43.6525430" lon="-79.4100720">
    <ele>103.8</ele>
    <time>2021-03-10T22:26:38Z</time>
   </trkpt>
   <trkpt lat="43.6525100" lon="-79.4100600">
    <ele>103.8</ele>
    <time>2021-03-10T22:26:39Z</time>
   </trkpt>
   <trkpt lat="43.6524820" lon="-79.4100530">
    <ele>103.7</ele>
    <time>2021-03-10T22:26:40Z</time>
   </trkpt>
   <trkpt lat="43.6524480" lon="-79.4100460">
    <ele>103.7</ele>
    <time>2021-03-10T22:26:41Z</time>
   </trkpt>
   <trkpt lat="43.6524330" lon="-79.4100450">
    <ele>103.7</ele>
    <time>2021-03-10T22:26:42Z</time>
   </trkpt>
   <trkpt lat="43.6524050" lon="-79.4100310">
    <ele>103.6</ele>
    <time>2021-03-10T22:26:43Z</time>
   </trkpt>
   <trkpt lat="43.6523770" lon="-79.4100150">
    <ele>103.6</ele>
    <time>2021-03-10T22:26:44Z</time>
   </trkpt>
   <trkpt lat="43.6523480" lon="-79.4100100">
    <ele>103.6</ele>
    <time>2021-03-10T22:26:45Z</time>
   </trkpt>
   <trkpt lat="43.6523160" lon="-79.4099960">
    <ele>103.5</ele>
    <time>2021-03-10T22:26:46Z</time>
   </trkpt>
   <trkpt lat="43.6523040" lon="-79.4099920">
    <ele>103.5</ele>
    <time>2021-03-10T22:26:47Z</time>
   </trkpt>
   <trkpt lat="43.6522660" lon="-79.4099890">
    <ele>103.5</ele>
    <time>2021-03-10T22:26:48Z</time>
   </trkpt>
   <trkpt lat="43.6522500" lon="-79.4099890">
    <ele>103.4</ele>
    <time>2021-03-10T22:26:49Z</time>
   </trkpt>
   <trkpt lat="43.6522190" lon="-79.4099840">
    <ele>103.4</ele>
    <time>2021-03-10T22:26:50Z</time>
   </trkpt>
   <trkpt lat="43.6522080" lon="-79.4099800">
    <ele>103.4</ele>
    <time>2021-03-10T22:26:51Z</time>
   </trkpt>
   <trkpt lat="43.6521800" lon="-79.4099680">
    <ele>103.4</ele>
    <time>2021-03-10T22:26:52Z</time>
   </trkpt>
   <trkpt lat="43.6521710" lon="-79.4099640">
    <ele>103.4</ele>
    <time>2021-03-10T22:26:53Z</time>
   </trkpt>
   <trkpt lat="43.6521340" lon="-79.4099590">
    <ele>103.3</ele>
    <time>2021-03-10T22:26:54Z</time>
   </trkpt>
   <trkpt lat="43.6521210" lon="-79.4099560">
    <ele>103.3</ele>
    <time>2021-03-10T22:26:55Z</time>
   </trkpt>
   <trkpt lat="43.6520930" lon="-79.4099460">
    <ele>103.3</ele>
    <time>2021-03-10T22:26:56Z</time>
   </trkpt>
   <trkpt lat="43.6520660" lon="-79.4099240">
    <ele>103.2</ele>
    <time>2021-03-10T22:26:57Z</time>
   </trkpt>
   <trkpt lat="43.6520540" lon="-79.4099150">
    <ele>103.2</ele>
    <time>2021-03-10T22:26:58Z</time>
   </trkpt>
   <trkpt lat="43.6520200" lon="-79.4098960">
    <ele>103.2</ele>
    <time>2021-03-10T22:26:59Z</time>
   </trkpt>
   <trkpt lat="43.6520070" lon="-79.4098840">
    <ele>103.2</ele>
    <time>2021-03-10T22:27:00Z</time>
   </trkpt>
   <trkpt lat="43.6519750" lon="-79.4098780">
    <ele>103.2</ele>
    <time>2021-03-10T22:27:01Z</time>
   </trkpt>
   <trkpt lat="43.6519450" lon="-79.4098720">
    <ele>103.2</ele>
    <time>2021-03-10T22:27:02Z</time>
   </trkpt>
   <trkpt lat="43.6519160" lon="-79.4098640">
    <ele>103.1</ele>
    <time>2021-03-10T22:27:03Z</time>
   </trkpt>
   <trkpt lat="43.6518790" lon="-79.4098520">
    <ele>103.1</ele>
    <time>2021-03-10T22:27:04Z</time>
   </trkpt>
   <trkpt lat="43.6518660" lon="-79.4098460">
    <ele>103.1</ele>
    <time>2021-03-10T22:27:05Z</time>
   </trkpt>
   <trkpt lat="43.6518360" lon="-79.4098370">
    <ele>103.0</ele>
    <time>2021-03-10T22:27:06Z</time>
   </trkpt>
   <trkpt lat="43.6518100" lon="-79.4098190">
    <ele>103.0</ele>
    <time>2021-03-10T22:27:07Z</time>
   </trkpt>
   <trkpt lat="43.6517820" lon="-79.4098040">
    <ele>103.0</ele>
    <time>2021-03-10T22:27:08Z</time>
   </trkpt>
   <trkpt lat="43.6517540" lon="-79.4098040">
    <ele>102.9</ele>
    <time>2021-03-10T22:27:09Z</time>
   </trkpt>
   <trkpt lat="43.6517180" lon="-79.4097940">
    <ele>102.9</ele>
    <time>2021-03-10T22:27:10Z</time>
   </trkpt>
   <trkpt lat="43.6517080" lon="-79.4097910">
    <ele>102.9</ele>
    <time>2021-03-10T22:27:11Z</time>
   </trkpt>
   <trkpt lat="43.6516760" lon="-79.4098020">
    <ele>102.9</ele>
    <time>2021-03-10T22:27:12Z</time>
   </trkpt>
   <trkpt lat="43.6516630" lon="-79.4098070">
    <ele>102.9</ele>
    <time>2021-03-10T22:27:13Z</time>
   </trkpt>
   <trkpt lat="43.6516400" lon="-79.4098380">
    <ele>102.8</ele>
    <time>2021-03-10T22:27:14Z</time>
   </trkpt>
   <trkpt lat="43.6516320" lon="-79.4098490">
    <ele>102.8</ele>
    <time>2021-03-10T22:27:15Z</time>
   </trkpt>
   <trkpt lat="43.6516090" lon="-79.4098950">
    <ele>102.8</ele>
    <time>2021-03-10T22:27:16Z</time>
   </trkpt>
   <trkpt lat="43.6516010" lon="-79.4099130">
    <ele>102.8</ele>
    <time>2021-03-10T22:27:17Z</time>
   </trkpt>
   <trkpt lat="43.6515880" lon="-79.4099660">
    <ele>102.7</ele>
    <time>2021-03-10T22:27:18Z</time>
   </trkpt>
   <trkpt lat="43.6515810" lon="-79.4099880">
    <ele>102.7</ele>
    <time>2021-03-10T22:27:19Z</time>
   </trkpt>
   <trkpt lat="43.6515680" lon="-79.4100290">
    <ele>102.7</ele>
    <time>2021-03-10T22:27:20Z</time>
   </trkpt>
   <trkpt lat="43.6515570" lon="-79.4100760">
    <ele>102.7</ele>
    <time>2021-03-10T22:27:21Z</time>
   </trkpt>
   <trkpt lat="43.6515520" lon="-79.4100880">
    <ele>102.7</ele>
    <time>2021-03-10T22:27:22Z</time>
   </trkpt>
   <trkpt lat="43.6515420" lon="-79.4101340">
    <ele>102.7</ele>
    <time>2021-03-10T22:27:23Z</time>
   </trkpt>
   <trkpt lat="43.6515380" lon="-79.4101500">
    <ele>102.7</ele>
    <time>2021-03-10T22:27:24Z</time>
   </trkpt>
   <trkpt lat="43.6515240" lon="-79.4101940">
    <ele>102.7</ele>
    <time>2021-03-10T22:27:25Z</time>
   </trkpt>
   <trkpt lat="43.6515170" lon="-79.4102060">
    <ele>102.7</ele>
    <time>2021-03-10T22:27:26Z</time>
   </trkpt>
   <trkpt lat="43.6515080" lon="-79.4102480">
    <ele>102.7</ele>
    <time>2021-03-10T22:27:27Z</time>
   </trkpt>
   <trkpt lat="43.6515050" lon="-79.4102600">
    <ele>102.7</ele>
    <time>2021-03-10T22:27:28Z</time>
   </trkpt>
   <trkpt lat="43.6515010" lon="-79.4102840">
    <ele>102.7</ele>
    <time>2021-03-10T22:27:29Z</time>
   </trkpt>
   <trkpt lat="43.6514970" lon="-79.4103030">
    <ele>102.7</ele>
    <time>2021-03-10T22:27:30Z</time>
   </trkpt>
   <trkpt lat="43.6514860" lon="-79.4103510">
    <ele>102.7</ele>
    <time>2021-03-10T22:27:31Z</time>
   </trkpt>
   <trkpt lat="43.6514820" lon="-79.4103690">
    <ele>102.7</ele>
    <time>2021-03-10T22:27:32Z</time>
   </trkpt>
   <trkpt lat="43.6514680" lon="-79.4104140">
    <ele>102.7</ele>
    <time>2021-03-10T22:27:33Z</time>
   </trkpt>
   <trkpt lat="43.6514580" lon="-79.4104620">
    <ele>102.7</ele>
    <time>2021-03-10T22:27:34Z</time>
   </trkpt>
   <trkpt lat="43.6514490" lon="-79.4104790">
    <ele>102.7</ele>
    <time>2021-03-10T22:27:35Z</time>
   </trkpt>
   <trkpt lat="43.6514440" lon="-79.4105270">
    <ele>102.6</ele>
    <time>2021-03-10T22:27:36Z</time>
   </trkpt>
   <trkpt lat="43.6514410" lon="-79.4105430">
    <ele>102.6</ele>
    <time>2021-03-10T22:27:37Z</time>
   </trkpt>
   <trkpt lat="43.6514380" lon="-79.4105880">
    <ele>102.6</ele>
    <time>2021-03-10T22:27:38Z</time>
   </trkpt>
   <trkpt lat="43.6514360" lon="-79.4106360">
    <ele>102.6</ele>
    <time>2021-03-10T22:27:39Z</time>
   </trkpt>
   <trkpt lat="43.6514330" lon="-79.4106530">
    <ele>102.6</ele>
    <time>2021-03-10T22:27:40Z</time>
   </trkpt>
   <trkpt lat="43.6514210" lon="-79.4106930">
    <ele>102.6</ele>
    <time>2021-03-10T22:27:41Z</time>
   </trkpt>
   <trkpt lat="43.6514150" lon="-79.4107370">
    <ele>102.6</ele>
    <time>2021-03-10T22:27:42Z</time>
   </trkpt>
   <trkpt lat="43.6514100" lon="-79.4107780">
    <ele>102.6</ele>
    <time>2021-03-10T22:27:43Z</time>
   </trkpt>
   <trkpt lat="43.6514130" lon="-79.4107970">
    <ele>102.6</ele>
    <time>2021-03-10T22:27:44Z</time>
   </trkpt>
   <trkpt lat="43.6514210" lon="-79.4108400">
    <ele>102.5</ele>
    <time>2021-03-10T22:27:45Z</time>
   </trkpt>
   <trkpt lat="43.6514240" lon="-79.4108560">
    <ele>102.5</ele>
    <time>2021-03-10T22:27:46Z</time>
   </trkpt>
   <trkpt lat="43.6514170" lon="-79.4109010">
    <ele>102.5</ele>
    <time>2021-03-10T22:27:47Z</time>
   </trkpt>
   <trkpt lat="43.6514120" lon="-79.4109110">
    <ele>102.5</ele>
    <time>2021-03-10T22:27:48Z</time>
   </trkpt>
   <trkpt lat="43.6514000" lon="-79.4109510">
    <ele>102.5</ele>
    <time>2021-03-10T22:27:49Z</time>
   </trkpt>
   <trkpt lat="43.6513990" lon="-79.4109650">
    <ele>102.5</ele>
    <time>2021-03-10T22:27:50Z</time>
   </trkpt>
   <trkpt lat="43.6513810" lon="-79.4109980">
    <ele>102.5</ele>
    <time>2021-03-10T22:27:51Z</time>
   </trkpt>
   <trkpt lat="43.6513730" lon="-79.4110050">
    <ele>102.5</ele>
    <time>2021-03-10T22:27:52Z</time>
   </trkpt>
   <trkpt lat="43.6513610" lon="-79.4109990">
    <ele>102.5</ele>
    <time>2021-03-10T22:27:53Z</time>
   </trkpt>
   <trkpt lat="43.6513550" lon="-79.4109850">
    <ele>102.5</ele>
    <time>2021-03-10T22:27:54Z</time>
   </trkpt>
   <trkpt lat="43.6513520" lon="-79.4109790">
    <ele>102.5</ele>
    <time>2021-03-10T22:27:55Z</time>
   </trkpt>
   <trkpt lat="43.6513480" lon="-79.4109750">
    <ele>102.5</ele>
    <time>2021-03-10T22:27:56Z</time>
   </trkpt>
   <trkpt lat="43.6513440" lon="-79.4109790">
    <ele>102.5</ele>
    <time>2021-03-10T22:27:57Z</time>
   </trkpt>
   <trkpt lat="43.6513390" lon="-79.4109830">
    <ele>102.5</ele>
    <time>2021-03-10T22:27:58Z</time>
   </trkpt>
   <trkpt lat="43.6513350" lon="-79.4109870">
    <ele>102.4</ele>
    <time>2021-03-10T22:27:59Z</time>
   </trkpt>
   <trkpt lat="43.6513300" lon="-79.4109900">
    <ele>102.4</ele>
    <time>2021-03-10T22:28:00Z</time>
   </trkpt>
   <trkpt lat="43.6513250" lon="-79.4109940">
    <ele>102.4</ele>
    <time>2021-03-10T22:28:01Z</time>
   </trkpt>
   <trkpt lat="43.6513210" lon="-79.4109980">
    <ele>102.4</ele>
    <time>2021-03-10T22:28:02Z</time>
   </trkpt>
   <trkpt lat="43.6513160" lon="-79.4110020">
    <ele>102.4</ele>
    <time>2021-03-10T22:28:03Z</time>
   </trkpt>
   <trkpt lat="43.6512970" lon="-79.4110320">
    <ele>102.4</ele>
    <time>2021-03-10T22:28:04Z</time>
   </trkpt>
   <trkpt lat="43.6512900" lon="-79.4110450">
    <ele>102.4</ele>
    <time>2021-03-10T22:28:05Z</time>
   </trkpt>
   <trkpt lat="43.6512790" lon="-79.4110800">
    <ele>102.3</ele>
    <time>2021-03-10T22:28:06Z</time>
   </trkpt>
   <trkpt lat="43.6512510" lon="-79.4111060">
    <ele>102.3</ele>
    <time>2021-03-10T22:28:07Z</time>
   </trkpt>
   <trkpt lat="43.6512170" lon="-79.4111420">
    <ele>102.3</ele>
    <time>2021-03-10T22:28:08Z</time>
   </trkpt>
   <trkpt lat="43.6512060" lon="-79.4111580">
    <ele>102.2</ele>
    <time>2021-03-10T22:28:09Z</time>
   </trkpt>
   <trkpt lat="43.6511860" lon="-79.4111960">
    <ele>102.2</ele>
    <time>2021-03-10T22:28:10Z</time>
   </trkpt>
   <trkpt lat="43.6511790" lon="-79.4112080">
    <ele>102.2</ele>
    <time>2021-03-10T22:28:11Z</time>
   </trkpt>
   <trkpt lat="43.6511600" lon="-79.4112650">
    <ele>102.1</ele>
    <time>2021-03-10T22:28:12Z</time>
   </trkpt>
   <trkpt lat="43.6511530" lon="-79.4112910">
    <ele>102.1</ele>
    <time>2021-03-10T22:28:13Z</time>
   </trkpt>
   <trkpt lat="43.6511480" lon="-79.4113300">
    <ele>102.1</ele>
    <time>2021-03-10T22:28:14Z</time>
   </trkpt>
   <trkpt lat="43.6511420" lon="-79.4113700">
    <ele>102.0</ele>
    <time>2021-03-10T22:28:15Z</time>
   </trkpt>
   <trkpt lat="43.6511400" lon="-79.4114200">
    <ele>102.0</ele>
    <time>2021-03-10T22:28:16Z</time>
   </trkpt>
   <trkpt lat="43.6511340" lon="-79.4114600">
    <ele>101.9</ele>
    <time>2021-03-10T22:28:17Z</time>
   </trkpt>
   <trkpt lat="43.6511290" lon="-79.4115060">
    <ele>101.9</ele>
    <time>2021-03-10T22:28:18Z</time>
   </trkpt>
   <trkpt lat="43.6511180" lon="-79.4115440">
    <ele>101.9</ele>
    <time>2021-03-10T22:28:19Z</time>
   </trkpt>
   <trkpt lat="43.6511070" lon="-79.4115890">
    <ele>101.8</ele>
    <time>2021-03-10T22:28:20Z</time>
   </trkpt>
   <trkpt lat="43.6511040" lon="-79.4116000">
    <ele>101.8</ele>
    <time>2021-03-10T22:28:21Z</time>
   </trkpt>
   <trkpt lat="43.6511000" lon="-79.4116120">
    <ele>101.8</ele>
    <time>2021-03-10T22:28:22Z</time>
   </trkpt>
   <trkpt lat="43.6510960" lon="-79.4116250">
    <ele>101.8</ele>
    <time>2021-03-10T22:28:23Z</time>
   </trkpt>
   <trkpt lat="43.6510900" lon="-79.4116440">
    <ele>101.8</ele>
    <time>2021-03-10T22:28:24Z</time>
   </trkpt>
   <trkpt lat="43.6510840" lon="-79.4116900">
    <ele>101.8</ele>
    <time>2021-03-10T22:28:25Z</time>
   </trkpt>
   <trkpt lat="43.6510810" lon="-79.4117070">
    <ele>101.8</ele>
    <time>2021-03-10T22:28:26Z</time>
   </trkpt>
   <trkpt lat="43.6510700" lon="-79.4117530">
    <ele>101.7</ele>
    <time>2021-03-10T22:28:27Z</time>
   </trkpt>
   <trkpt lat="43.6510680" lon="-79.4117710">
    <ele>101.7</ele>
    <time>2021-03-10T22:28:28Z</time>
   </trkpt>
   <trkpt lat="43.6510720" lon="-79.4117880">
    <ele>101.7</ele>
    <time>2021-03-10T22:28:29Z</time>
   </trkpt>
   <trkpt lat="43.6510720" lon="-79.4118110">
    <ele>101.7</ele>
    <time>2021-03-10T22:28:30Z</time>
   </trkpt>
   <trkpt lat="43.6510710" lon="-79.4118380">
    <ele>101.7</ele>
    <time>2021-03-10T22:28:31Z</time>
   </trkpt>
   <trkpt lat="43.6510710" lon="-79.4118570">
    <ele>101.7</ele>
    <time>2021-03-10T22:28:32Z</time>
   </trkpt>
   <trkpt lat="43.6510690" lon="-79.4118960">
    <ele>101.7</ele>
    <time>2021-03-10T22:28:33Z</time>
   </trkpt>
   <trkpt lat="43.6510670" lon="-79.4119120">
    <ele>101.7</ele>
    <time>2021-03-10T22:28:34Z</time>
   </trkpt>
   <trkpt lat="43.6510680" lon="-79.4119520">
    <ele>101.6</ele>
    <time>2021-03-10T22:28:35Z</time>
   </trkpt>
   <trkpt lat="43.6510810" lon="-79.4119940">
    <ele>101.6</ele>
    <time>2021-03-10T22:28:36Z</time>
   </trkpt>
   <trkpt lat="43.6510890" lon="-79.4120110">
    <ele>101.6</ele>
    <time>2021-03-10T22:28:37Z</time>
   </trkpt>
   <trkpt lat="43.6510960" lon="-79.4120570">
    <ele>101.6</ele>
    <time>2021-03-10T22:28:38Z</time>
   </trkpt>
   <trkpt lat="43.6510940" lon="-79.4120700">
    <ele>101.6</ele>
    <time>2021-03-10T22:28:39Z</time>
   </trkpt>
   <trkpt lat="43.6510960" lon="-79.4120950">
    <ele>101.6</ele>
    <time>2021-03-10T22:28:40Z</time>
   </trkpt>
   <trkpt lat="43.6511000" lon="-79.4121180">
    <ele>101.5</ele>
    <time>2021-03-10T22:28:41Z</time>
   </trkpt>
   <trkpt lat="43.6510940" lon="-79.4121580">
    <ele>101.5</ele>
    <time>2021-03-10T22:28:42Z</time>
   </trkpt>
   <trkpt lat="43.6510920" lon="-79.4121690">
    <ele>101.5</ele>
    <time>2021-03-10T22:28:43Z</time>
   </trkpt>
   <trkpt lat="43.6510870" lon="-79.4122100">
    <ele>101.5</ele>
    <time>2021-03-10T22:28:44Z</time>
   </trkpt>
   <trkpt lat="43.6510860" lon="-79.4122620">
    <ele>101.4</ele>
    <time>2021-03-10T22:28:45Z</time>
   </trkpt>
   <trkpt lat="43.6510840" lon="-79.4122770">
    <ele>101.4</ele>
    <time>2021-03-10T22:28:46Z</time>
   </trkpt>
   <trkpt lat="43.6510730" lon="-79.4123270">
    <ele>101.4</ele>
    <time>2021-03-10T22:28:47Z</time>
   </trkpt>
   <trkpt lat="43.6510660" lon="-79.4123450">
    <ele>101.4</ele>
    <time>2021-03-10T22:28:48Z</time>
   </trkpt>
   <trkpt lat="43.6510510" lon="-79.4123860">
    <ele>101.3</ele>
    <time>2021-03-10T22:28:49Z</time>
   </trkpt>
   <trkpt lat="43.6510460" lon="-79.4124260">
    <ele>101.3</ele>
    <time>2021-03-10T22:28:50Z</time>
   </trkpt>
   <trkpt lat="43.6510420" lon="-79.4124730">
    <ele>101.3</ele>
    <time>2021-03-10T22:28:51Z</time>
   </trkpt>
   <trkpt lat="43.6510310" lon="-79.4125150">
    <ele>101.2</ele>
    <time>2021-03-10T22:28:52Z</time>
   </trkpt>
   <trkpt lat="43.6510010" lon="-79.4125610">
    <ele>101.2</ele>
    <time>2021-03-10T22:28:53Z</time>
   </trkpt>
   <trkpt lat="43.6509730" lon="-79.4125920">
    <ele>101.1</ele>
    <time>2021-03-10T22:28:54Z</time>
   </trkpt>
   <trkpt lat="43.6509650" lon="-79.4126020">
    <ele>101.1</ele>
    <time>2021-03-10T22:28:55Z</time>
   </trkpt>
   <trkpt lat="43.6509610" lon="-79.4126190">
    <ele>101.1</ele>
    <time>2021-03-10T22:28:56Z</time>
   </trkpt>
   <trkpt lat="43.6509600" lon="-79.4126440">
    <ele>101.1</ele>
    <time>2021-03-10T22:28:57Z</time>
   </trkpt>
   <trkpt lat="43.6509450" lon="-79.4126790">
    <ele>101.1</ele>
    <time>2021-03-10T22:28:58Z</time>
   </trkpt>
   <trkpt lat="43.6509230" lon="-79.4127060">
    <ele>100.9</ele>
    <time>2021-03-10T22:28:59Z</time>
   </trkpt>
   <trkpt lat="43.6509150" lon="-79.4127110">
    <ele>100.9</ele>
    <time>2021-03-10T22:29:00Z</time>
   </trkpt>
   <trkpt lat="43.6508860" lon="-79.4127080">
    <ele>100.8</ele>
    <time>2021-03-10T22:29:01Z</time>
   </trkpt>
   <trkpt lat="43.6508760" lon="-79.4127070">
    <ele>100.8</ele>
    <time>2021-03-10T22:29:02Z</time>
   </trkpt>
   <trkpt lat="43.6508340" lon="-79.4127070">
    <ele>100.6</ele>
    <time>2021-03-10T22:29:03Z</time>
   </trkpt>
   <trkpt lat="43.6508180" lon="-79.4127090">
    <ele>100.5</ele>
    <time>2021-03-10T22:29:04Z</time>
   </trkpt>
   <trkpt lat="43.6507840" lon="-79.4127030">
    <ele>100.4</ele>
    <time>2021-03-10T22:29:05Z</time>
   </trkpt>
   <trkpt lat="43.6507720" lon="-79.4127020">
    <ele>100.4</ele>
    <time>2021-03-10T22:29:06Z</time>
   </trkpt>
   <trkpt lat="43.6507460" lon="-79.4126910">
    <ele>100.3</ele>
    <time>2021-03-10T22:29:07Z</time>
   </trkpt>
   <trkpt lat="43.6507170" lon="-79.4126750">
    <ele>100.1</ele>
    <time>2021-03-10T22:29:08Z</time>
   </trkpt>
   <trkpt lat="43.6507050" lon="-79.4126750">
    <ele>100.1</ele>
    <time>2021-03-10T22:29:09Z</time>
   </trkpt>
   <trkpt lat="43.6506740" lon="-79.4126720">
    <ele>100.0</ele>
    <time>2021-03-10T22:29:10Z</time>
   </trkpt>
   <trkpt lat="43.6506620" lon="-79.4126700">
    <ele>100.0</ele>
    <time>2021-03-10T22:29:11Z</time>
   </trkpt>
   <trkpt lat="43.6506480" lon="-79.4126640">
    <ele>99.9</ele>
    <time>2021-03-10T22:29:12Z</time>
   </trkpt>
   <trkpt lat="43.6506260" lon="-79.4126620">
    <ele>99.9</ele>
    <time>2021-03-10T22:29:13Z</time>
   </trkpt>
   <trkpt lat="43.6505930" lon="-79.4126610">
    <ele>99.8</ele>
    <time>2021-03-10T22:29:14Z</time>
   </trkpt>
   <trkpt lat="43.6505800" lon="-79.4126580">
    <ele>99.7</ele>
    <time>2021-03-10T22:29:15Z</time>
   </trkpt>
   <trkpt lat="43.6505400" lon="-79.4126470">
    <ele>99.6</ele>
    <time>2021-03-10T22:29:16Z</time>
   </trkpt>
   <trkpt lat="43.6505250" lon="-79.4126460">
    <ele>99.6</ele>
    <time>2021-03-10T22:29:17Z</time>
   </trkpt>
   <trkpt lat="43.6504870" lon="-79.4126450">
    <ele>99.5</ele>
    <time>2021-03-10T22:29:18Z</time>
   </trkpt>
   <trkpt lat="43.6504740" lon="-79.4126450">
    <ele>99.4</ele>
    <time>2021-03-10T22:29:19Z</time>
   </trkpt>
   <trkpt lat="43.6504430" lon="-79.4126380">
    <ele>99.4</ele>
    <time>2021-03-10T22:29:20Z</time>
   </trkpt>
   <trkpt lat="43.6504330" lon="-79.4126360">
    <ele>99.3</ele>
    <time>2021-03-10T22:29:21Z</time>
   </trkpt>
   <trkpt lat="43.6503960" lon="-79.4126290">
    <ele>99.2</ele>
    <time>2021-03-10T22:29:22Z</time>
   </trkpt>
   <trkpt lat="43.6503840" lon="-79.4126280">
    <ele>99.2</ele>
    <time>2021-03-10T22:29:23Z</time>
   </trkpt>
   <trkpt lat="43.6503550" lon="-79.4126160">
    <ele>99.1</ele>
    <time>2021-03-10T22:29:24Z</time>
   </trkpt>
   <trkpt lat="43.6503440" lon="-79.4126140">
    <ele>99.1</ele>
    <time>2021-03-10T22:29:25Z</time>
   </trkpt>
   <trkpt lat="43.6503100" lon="-79.4126010">
    <ele>99.0</ele>
    <time>2021-03-10T22:29:26Z</time>
   </trkpt>
   <trkpt lat="43.6502980" lon="-79.4126000">
    <ele>99.0</ele>
    <time>2021-03-10T22:29:27Z</time>
   </trkpt>
   <trkpt lat="43.6502550" lon="-79.4125820">
    <ele>98.9</ele>
    <time>2021-03-10T22:29:28Z</time>
   </trkpt>
   <trkpt lat="43.6502370" lon="-79.4125700">
    <ele>98.8</ele>
    <time>2021-03-10T22:29:29Z</time>
   </trkpt>
   <trkpt lat="43.6502030" lon="-79.4125490">
    <ele>98.7</ele>
    <time>2021-03-10T22:29:30Z</time>
   </trkpt>
   <trkpt lat="43.6501720" lon="-79.4125350">
    <ele>98.7</ele>
    <time>2021-03-10T22:29:31Z</time>
   </trkpt>
   <trkpt lat="43.6501380" lon="-79.4125220">
    <ele>98.6</ele>
    <time>2021-03-10T22:29:32Z</time>
   </trkpt>
   <trkpt lat="43.6501270" lon="-79.4125210">
    <ele>98.6</ele>
    <time>2021-03-10T22:29:33Z</time>
   </trkpt>
   <trkpt lat="43.6500930" lon="-79.4125120">
    <ele>98.5</ele>
    <time>2021-03-10T22:29:34Z</time>
   </trkpt>
   <trkpt lat="43.6500840" lon="-79.4125090">
    <ele>98.5</ele>
    <time>2021-03-10T22:29:35Z</time>
   </trkpt>
   <trkpt lat="43.6500570" lon="-79.4125070">
    <ele>98.4</ele>
    <time>2021-03-10T22:29:36Z</time>
   </trkpt>
   <trkpt lat="43.6500470" lon="-79.4125080">
    <ele>98.4</ele>
    <time>2021-03-10T22:29:37Z</time>
   </trkpt>
   <trkpt lat="43.6500100" lon="-79.4124840">
    <ele>98.3</ele>
    <time>2021-03-10T22:29:38Z</time>
   </trkpt>
   <trkpt lat="43.6499950" lon="-79.4124800">
    <ele>98.3</ele>
    <time>2021-03-10T22:29:39Z</time>
   </trkpt>
   <trkpt lat="43.6499710" lon="-79.4124600">
    <ele>98.2</ele>
    <time>2021-03-10T22:29:40Z</time>
   </trkpt>
   <trkpt lat="43.6499390" lon="-79.4124410">
    <ele>98.1</ele>
    <time>2021-03-10T22:29:41Z</time>
   </trkpt>
   <trkpt lat="43.6499080" lon="-79.4124250">
    <ele>98.1</ele>
    <time>2021-03-10T22:29:42Z</time>
   </trkpt>
   <trkpt lat="43.6498590" lon="-79.4123920">
    <ele>98.0</ele>
    <time>2021-03-10T22:29:43Z</time>
   </trkpt>
   <trkpt lat="43.6498310" lon="-79.4123770">
    <ele>97.9</ele>
    <time>2021-03-10T22:29:44Z</time>
   </trkpt>
   <trkpt lat="43.6497940" lon="-79.4123650">
    <ele>97.8</ele>
    <time>2021-03-10T22:29:45Z</time>
   </trkpt>
   <trkpt lat="43.6497820" lon="-79.4123610">
    <ele>97.8</ele>
    <time>2021-03-10T22:29:46Z</time>
   </trkpt>
   <trkpt lat="43.6497510" lon="-79.4123570">
    <ele>97.7</ele>
    <time>2021-03-10T22:29:47Z</time>
   </trkpt>
   <trkpt lat="43.6497390" lon="-79.4123560">
    <ele>97.7</ele>
    <time>2021-03-10T22:29:48Z</time>
   </trkpt>
   <trkpt lat="43.6497040" lon="-79.4123480">
    <ele>97.6</ele>
    <time>2021-03-10T22:29:49Z</time>
   </trkpt>
   <trkpt lat="43.6496900" lon="-79.4123410">
    <ele>97.6</ele>
    <time>2021-03-10T22:29:50Z</time>
   </trkpt>
   <trkpt lat="43.6496540" lon="-79.4123260">
    <ele>97.5</ele>
    <time>2021-03-10T22:29:51Z</time>
   </trkpt>
   <trkpt lat="43.6496420" lon="-79.4123220">
    <ele>97.5</ele>
    <time>2021-03-10T22:29:52Z</time>
   </trkpt>
   <trkpt lat="43.6496130" lon="-79.4123050">
    <ele>97.4</ele>
    <time>2021-03-10T22:29:53Z</time>
   </trkpt>
   <trkpt lat="43.6495800" lon="-79.4123010">
    <ele>97.3</ele>
    <time>2021-03-10T22:29:54Z</time>
   </trkpt>
   <trkpt lat="43.6495660" lon="-79.4123000">
    <ele>97.3</ele>
    <time>2021-03-10T22:29:55Z</time>
   </trkpt>
   <trkpt lat="43.6495370" lon="-79.4122950">
    <ele>97.2</ele>
    <time>2021-03-10T22:29:56Z</time>
   </trkpt>
   <trkpt lat="43.6495020" lon="-79.4122820">
    <ele>97.2</ele>
    <time>2021-03-10T22:29:57Z</time>
   </trkpt>
   <trkpt lat="43.6494670" lon="-79.4122660">
    <ele>97.1</ele>
    <time>2021-03-10T22:29:58Z</time>
   </trkpt>
   <trkpt lat="43.6494390" lon="-79.4122490">
    <ele>97.0</ele>
    <time>2021-03-10T22:29:59Z</time>
   </trkpt>
   <trkpt lat="43.6494080" lon="-79.4122360">
    <ele>96.9</ele>
    <time>2021-03-10T22:30:00Z</time>
   </trkpt>
   <trkpt lat="43.6493760" lon="-79.4122220">
    <ele>96.8</ele>
    <time>2021-03-10T22:30:01Z</time>
   </trkpt>
   <trkpt lat="43.6493300" lon="-79.4122050">
    <ele>96.7</ele>
    <time>2021-03-10T22:30:03Z</time>
   </trkpt>
   <trkpt lat="43.6493150" lon="-79.4121950">
    <ele>96.7</ele>
    <time>2021-03-10T22:30:04Z</time>
   </trkpt>
   <trkpt lat="43.6493000" lon="-79.4121860">
    <ele>96.6</ele>
    <time>2021-03-10T22:30:05Z</time>
   </trkpt>
   <trkpt lat="43.6492720" lon="-79.4121730">
    <ele>96.6</ele>
    <time>2021-03-10T22:30:06Z</time>
   </trkpt>
   <trkpt lat="43.6492440" lon="-79.4121650">
    <ele>96.5</ele>
    <time>2021-03-10T22:30:07Z</time>
   </trkpt>
   <trkpt lat="43.6492100" lon="-79.4121490">
    <ele>96.4</ele>
    <time>2021-03-10T22:30:08Z</time>
   </trkpt>
   <trkpt lat="43.6492000" lon="-79.4121490">
    <ele>96.4</ele>
    <time>2021-03-10T22:30:09Z</time>
   </trkpt>
   <trkpt lat="43.6491660" lon="-79.4121420">
    <ele>96.3</ele>
    <time>2021-03-10T22:30:10Z</time>
   </trkpt>
   <trkpt lat="43.6491510" lon="-79.4121380">
    <ele>96.2</ele>
    <time>2021-03-10T22:30:11Z</time>
   </trkpt>
   <trkpt lat="43.6491320" lon="-79.4121310">
    <ele>96.2</ele>
    <time>2021-03-10T22:30:12Z</time>
   </trkpt>
   <trkpt lat="43.6491180" lon="-79.4121180">
    <ele>96.2</ele>
    <time>2021-03-10T22:30:13Z</time>
   </trkpt>
   <trkpt lat="43.6490810" lon="-79.4120980">
    <ele>96.1</ele>
    <time>2021-03-10T22:30:14Z</time>
   </trkpt>
   <trkpt lat="43.6490650" lon="-79.4120880">
    <ele>96.0</ele>
    <time>2021-03-10T22:30:15Z</time>
   </trkpt>
   <trkpt lat="43.6490390" lon="-79.4120650">
    <ele>95.9</ele>
    <time>2021-03-10T22:30:16Z</time>
   </trkpt>
   <trkpt lat="43.6490100" lon="-79.4120560">
    <ele>95.9</ele>
    <time>2021-03-10T22:30:17Z</time>
   </trkpt>
   <trkpt lat="43.6489730" lon="-79.4120530">
    <ele>95.8</ele>
    <time>2021-03-10T22:30:18Z</time>
   </trkpt>
   <trkpt lat="43.6489390" lon="-79.4120340">
    <ele>95.7</ele>
    <time>2021-03-10T22:30:19Z</time>
   </trkpt>
   <trkpt lat="43.6489280" lon="-79.4120300">
    <ele>95.7</ele>
    <time>2021-03-10T22:30:20Z</time>
   </trkpt>
   <trkpt lat="43.6488950" lon="-79.4120180">
    <ele>95.6</ele>
    <time>2021-03-10T22:30:21Z</time>
   </trkpt>
   <trkpt lat="43.6488830" lon="-79.4120140">
    <ele>95.5</ele>
    <time>2021-03-10T22:30:22Z</time>
   </trkpt>
   <trkpt lat="43.6488520" lon="-79.4120020">
    <ele>95.5</ele>
    <time>2021-03-10T22:30:23Z</time>
   </trkpt>
   <trkpt lat="43.6488440" lon="-79.4119980">
    <ele>95.4</ele>
    <time>2021-03-10T22:30:24Z</time>
   </trkpt>
   <trkpt lat="43.6488140" lon="-79.4119830">
    <ele>95.4</ele>
    <time>2021-03-10T22:30:25Z</time>
   </trkpt>
   <trkpt lat="43.6488000" lon="-79.4119760">
    <ele>95.3</ele>
    <time>2021-03-10T22:30:26Z</time>
   </trkpt>
   <trkpt lat="43.6487710" lon="-79.4119670">
    <ele>95.3</ele>
    <time>2021-03-10T22:30:27Z</time>
   </trkpt>
   <trkpt lat="43.6487430" lon="-79.4119580">
    <ele>95.2</ele>
    <time>2021-03-10T22:30:28Z</time>
   </trkpt>
   <trkpt lat="43.6487140" lon="-79.4119450">
    <ele>95.1</ele>
    <time>2021-03-10T22:30:29Z</time>
   </trkpt>
   <trkpt lat="43.6486820" lon="-79.4119290">
    <ele>95.0</ele>
    <time>2021-03-10T22:30:30Z</time>
   </trkpt>
   <trkpt lat="43.6486530" lon="-79.4119050">
    <ele>94.9</ele>
    <time>2021-03-10T22:30:31Z</time>
   </trkpt>
   <trkpt lat="43.6486170" lon="-79.4118790">
    <ele>94.8</ele>
    <time>2021-03-10T22:30:32Z</time>
   </trkpt>
   <trkpt lat="43.6486000" lon="-79.4118780">
    <ele>94.8</ele>
    <time>2021-03-10T22:30:33Z</time>
   </trkpt>
   <trkpt lat="43.6485620" lon="-79.4118590">
    <ele>94.7</ele>
    <time>2021-03-10T22:30:34Z</time>
   </trkpt>
   <trkpt lat="43.6485430" lon="-79.4118520">
    <ele>94.6</ele>
    <time>2021-03-10T22:30:35Z</time>
   </trkpt>
   <trkpt lat="43.6485130" lon="-79.4118490">
    <ele>94.6</ele>
    <time>2021-03-10T22:30:36Z</time>
   </trkpt>
   <trkpt lat="43.6484800" lon="-79.4118230">
    <ele>94.5</ele>
    <time>2021-03-10T22:30:37Z</time>
   </trkpt>
   <trkpt lat="43.6484700" lon="-79.4118150">
    <ele>94.4</ele>
    <time>2021-03-10T22:30:38Z</time>
   </trkpt>
   <trkpt lat="43.6484380" lon="-79.4117910">
    <ele>94.3</ele>
    <time>2021-03-10T22:30:39Z</time>
   </trkpt>
   <trkpt lat="43.6484230" lon="-79.4117850">
    <ele>94.3</ele>
    <time>2021-03-10T22:30:40Z</time>
   </trkpt>
   <trkpt lat="43.6483880" lon="-79.4117740">
    <ele>94.2</ele>
    <time>2021-03-10T22:30:41Z</time>
   </trkpt>
   <trkpt lat="43.6483590" lon="-79.4117650">
    <ele>94.1</ele>
    <time>2021-03-10T22:30:42Z</time>
   </trkpt>
   <trkpt lat="43.6483300" lon="-79.4117470">
    <ele>94.0</ele>
    <time>2021-03-10T22:30:43Z</time>
   </trkpt>
   <trkpt lat="43.6483210" lon="-79.4117400">
    <ele>94.0</ele>
    <time>2021-03-10T22:30:44Z</time>
   </trkpt>
   <trkpt lat="43.6482880" lon="-79.4117350">
    <ele>93.9</ele>
    <time>2021-03-10T22:30:45Z</time>
   </trkpt>
   <trkpt lat="43.6482780" lon="-79.4117370">
    <ele>93.9</ele>
    <time>2021-03-10T22:30:46Z</time>
   </trkpt>
   <trkpt lat="43.6482480" lon="-79.4117380">
    <ele>93.8</ele>
    <time>2021-03-10T22:30:47Z</time>
   </trkpt>
   <trkpt lat="43.6482140" lon="-79.4117260">
    <ele>93.8</ele>
    <time>2021-03-10T22:30:48Z</time>
   </trkpt>
   <trkpt lat="43.6482000" lon="-79.4117210">
    <ele>93.7</ele>
    <time>2021-03-10T22:30:49Z</time>
   </trkpt>
   <trkpt lat="43.6481700" lon="-79.4117030">
    <ele>93.7</ele>
    <time>2021-03-10T22:30:50Z</time>
   </trkpt>
   <trkpt lat="43.6481350" lon="-79.4116820">
    <ele>93.6</ele>
    <time>2021-03-10T22:30:51Z</time>
   </trkpt>
   <trkpt lat="43.6481210" lon="-79.4116770">
    <ele>93.6</ele>
    <time>2021-03-10T22:30:52Z</time>
   </trkpt>
   <trkpt lat="43.6480990" lon="-79.4116490">
    <ele>93.5</ele>
    <time>2021-03-10T22:30:53Z</time>
   </trkpt>
   <trkpt lat="43.6480660" lon="-79.4116420">
    <ele>93.4</ele>
    <time>2021-03-10T22:30:54Z</time>
   </trkpt>
   <trkpt lat="43.6480560" lon="-79.4116420">
    <ele>93.4</ele>
    <time>2021-03-10T22:30:55Z</time>
   </trkpt>
   <trkpt lat="43.6480250" lon="-79.4116280">
    <ele>93.3</ele>
    <time>2021-03-10T22:30:56Z</time>
   </trkpt>
   <trkpt lat="43.6480160" lon="-79.4116230">
    <ele>93.3</ele>
    <time>2021-03-10T22:30:57Z</time>
   </trkpt>
   <trkpt lat="43.6479830" lon="-79.4116080">
    <ele>93.3</ele>
    <time>2021-03-10T22:30:58Z</time>
   </trkpt>
   <trkpt lat="43.6479710" lon="-79.4116040">
    <ele>93.2</ele>
    <time>2021-03-10T22:30:59Z</time>
   </trkpt>
   <trkpt lat="43.6479450" lon="-79.4115900">
    <ele>93.2</ele>
    <time>2021-03-10T22:31:00Z</time>
   </trkpt>
   <trkpt lat="43.6479070" lon="-79.4115970">
    <ele>93.1</ele>
    <time>2021-03-10T22:31:01Z</time>
   </trkpt>
   <trkpt lat="43.6478640" lon="-79.4116010">
    <ele>93.0</ele>
    <time>2021-03-10T22:31:02Z</time>
   </trkpt>
   <trkpt lat="43.6478430" lon="-79.4116050">
    <ele>93.0</ele>
    <time>2021-03-10T22:31:03Z</time>
   </trkpt>
   <trkpt lat="43.6478100" lon="-79.4115950">
    <ele>92.9</ele>
    <time>2021-03-10T22:31:04Z</time>
   </trkpt>
   <trkpt lat="43.6477800" lon="-79.4115880">
    <ele>92.9</ele>
    <time>2021-03-10T22:31:05Z</time>
   </trkpt>
   <trkpt lat="43.6477520" lon="-79.4115780">
    <ele>92.8</ele>
    <time>2021-03-10T22:31:06Z</time>
   </trkpt>
   <trkpt lat="43.6477230" lon="-79.4115570">
    <ele>92.8</ele>
    <time>2021-03-10T22:31:07Z</time>
   </trkpt>
   <trkpt lat="43.6476950" lon="-79.4115480">
    <ele>92.7</ele>
    <time>2021-03-10T22:31:08Z</time>
   </trkpt>
   <trkpt lat="43.6476580" lon="-79.4115470">
    <ele>92.7</ele>
    <time>2021-03-10T22:31:09Z</time>
   </trkpt>
   <trkpt lat="43.6476460" lon="-79.4115480">
    <ele>92.6</ele>
    <time>2021-03-10T22:31:10Z</time>
   </trkpt>
   <trkpt lat="43.6476160" lon="-79.4115470">
    <ele>92.6</ele>
    <time>2021-03-10T22:31:11Z</time>
   </trkpt>
   <trkpt lat="43.6476050" lon="-79.4115510">
    <ele>92.6</ele>
    <time>2021-03-10T22:31:12Z</time>
   </trkpt>
   <trkpt lat="43.6475890" lon="-79.4115460">
    <ele>92.5</ele>
    <time>2021-03-10T22:31:13Z</time>
   </trkpt>
   <trkpt lat="43.6475760" lon="-79.4115370">
    <ele>92.5</ele>
    <time>2021-03-10T22:31:14Z</time>
   </trkpt>
   <trkpt lat="43.6475450" lon="-79.4115300">
    <ele>92.4</ele>
    <time>2021-03-10T22:31:15Z</time>
   </trkpt>
   <trkpt lat="43.6475320" lon="-79.4115270">
    <ele>92.4</ele>
    <time>2021-03-10T22:31:16Z</time>
   </trkpt>
   <trkpt lat="43.6475040" lon="-79.4115130">
    <ele>92.4</ele>
    <time>2021-03-10T22:31:17Z</time>
   </trkpt>
   <trkpt lat="43.6474910" lon="-79.4115030">
    <ele>92.3</ele>
    <time>2021-03-10T22:31:18Z</time>
   </trkpt>
   <trkpt lat="43.6474610" lon="-79.4114730">
    <ele>92.3</ele>
    <time>2021-03-10T22:31:19Z</time>
   </trkpt>
   <trkpt lat="43.6474500" lon="-79.4114680">
    <ele>92.2</ele>
    <time>2021-03-10T22:31:20Z</time>
   </trkpt>
   <trkpt lat="43.6474200" lon="-79.4114620">
    <ele>92.2</ele>
    <time>2021-03-10T22:31:21Z</time>
   </trkpt>
   <trkpt lat="43.6473800" lon="-79.4114450">
    <ele>92.1</ele>
    <time>2021-03-10T22:31:22Z</time>
   </trkpt>
   <trkpt lat="43.6473630" lon="-79.4114330">
    <ele>92.1</ele>
    <time>2021-03-10T22:31:23Z</time>
   </trkpt>
   <trkpt lat="43.6473300" lon="-79.4114180">
    <ele>92.0</ele>
    <time>2021-03-10T22:31:24Z</time>
   </trkpt>
   <trkpt lat="43.6472970" lon="-79.4114130">
    <ele>91.9</ele>
    <time>2021-03-10T22:31:25Z</time>
   </trkpt>
   <trkpt lat="43.6472630" lon="-79.4113930">
    <ele>91.8</ele>
    <time>2021-03-10T22:31:26Z</time>
   </trkpt>
   <trkpt lat="43.6472530" lon="-79.4113850">
    <ele>91.8</ele>
    <time>2021-03-10T22:31:27Z</time>
   </trkpt>
   <trkpt lat="43.6472140" lon="-79.4113780">
    <ele>91.7</ele>
    <time>2021-03-10T22:31:28Z</time>
   </trkpt>
   <trkpt lat="43.6472010" lon="-79.4113740">
    <ele>91.7</ele>
    <time>2021-03-10T22:31:29Z</time>
   </trkpt>
   <trkpt lat="43.6471700" lon="-79.4113540">
    <ele>91.6</ele>
    <time>2021-03-10T22:31:30Z</time>
   </trkpt>
   <trkpt lat="43.6471440" lon="-79.4113450">
    <ele>91.5</ele>
    <time>2021-03-10T22:31:31Z</time>
   </trkpt>
   <trkpt lat="43.6471080" lon="-79.4113240">
    <ele>91.4</ele>
    <time>2021-03-10T22:31:32Z</time>
   </trkpt>
   <trkpt lat="43.6470970" lon="-79.4113130">
    <ele>91.4</ele>
    <time>2021-03-10T22:31:33Z</time>
   </trkpt>
   <trkpt lat="43.6470630" lon="-79.4112950">
    <ele>91.3</ele>
    <time>2021-03-10T22:31:34Z</time>
   </trkpt>
   <trkpt lat="43.6470500" lon="-79.4112920">
    <ele>91.3</ele>
    <time>2021-03-10T22:31:35Z</time>
   </trkpt>
   <trkpt lat="43.6470200" lon="-79.4112690">
    <ele>91.2</ele>
    <time>2021-03-10T22:31:36Z</time>
   </trkpt>
   <trkpt lat="43.6470070" lon="-79.4112650">
    <ele>91.2</ele>
    <time>2021-03-10T22:31:37Z</time>
   </trkpt>
   <trkpt lat="43.6469790" lon="-79.4112480">
    <ele>91.1</ele>
    <time>2021-03-10T22:31:38Z</time>
   </trkpt>
   <trkpt lat="43.6469690" lon="-79.4112460">
    <ele>91.1</ele>
    <time>2021-03-10T22:31:39Z</time>
   </trkpt>
   <trkpt lat="43.6469370" lon="-79.4112490">
    <ele>91.0</ele>
    <time>2021-03-10T22:31:40Z</time>
   </trkpt>
   <trkpt lat="43.6469100" lon="-79.4112330">
    <ele>91.0</ele>
    <time>2021-03-10T22:31:41Z</time>
   </trkpt>
   <trkpt lat="43.6468800" lon="-79.4112240">
    <ele>90.9</ele>
    <time>2021-03-10T22:31:42Z</time>
   </trkpt>
   <trkpt lat="43.6468670" lon="-79.4112240">
    <ele>90.9</ele>
    <time>2021-03-10T22:31:43Z</time>
   </trkpt>
   <trkpt lat="43.6468360" lon="-79.4112100">
    <ele>90.8</ele>
    <time>2021-03-10T22:31:44Z</time>
   </trkpt>
   <trkpt lat="43.6468250" lon="-79.4112040">
    <ele>90.8</ele>
    <time>2021-03-10T22:31:45Z</time>
   </trkpt>
   <trkpt lat="43.6467910" lon="-79.4111870">
    <ele>90.7</ele>
    <time>2021-03-10T22:31:46Z</time>
   </trkpt>
   <trkpt lat="43.6467790" lon="-79.4111780">
    <ele>90.7</ele>
    <time>2021-03-10T22:31:47Z</time>
   </trkpt>
   <trkpt lat="43.6467470" lon="-79.4111630">
    <ele>90.6</ele>
    <time>2021-03-10T22:31:48Z</time>
   </trkpt>
   <trkpt lat="43.6467370" lon="-79.4111600">
    <ele>90.6</ele>
    <time>2021-03-10T22:31:49Z</time>
   </trkpt>
   <trkpt lat="43.6467090" lon="-79.4111590">
    <ele>90.5</ele>
    <time>2021-03-10T22:31:50Z</time>
   </trkpt>
   <trkpt lat="43.6466740" lon="-79.4111640">
    <ele>90.5</ele>
    <time>2021-03-10T22:31:51Z</time>
   </trkpt>
   <trkpt lat="43.6466400" lon="-79.4111610">
    <ele>90.4</ele>
    <time>2021-03-10T22:31:52Z</time>
   </trkpt>
   <trkpt lat="43.6466050" lon="-79.4111520">
    <ele>90.3</ele>
    <time>2021-03-10T22:31:53Z</time>
   </trkpt>
   <trkpt lat="43.6465950" lon="-79.4111490">
    <ele>90.3</ele>
    <time>2021-03-10T22:31:54Z</time>
   </trkpt>
   <trkpt lat="43.6465680" lon="-79.4111300">
    <ele>90.2</ele>
    <time>2021-03-10T22:31:55Z</time>
   </trkpt>
   <trkpt lat="43.6465390" lon="-79.4111220">
    <ele>90.2</ele>
    <time>2021-03-10T22:31:56Z</time>
   </trkpt>
   <trkpt lat="43.6465040" lon="-79.4111030">
    <ele>90.1</ele>
    <time>2021-03-10T22:31:57Z</time>
   </trkpt>
   <trkpt lat="43.6464910" lon="-79.4110970">
    <ele>90.1</ele>
    <time>2021-03-10T22:31:58Z</time>
   </trkpt>
   <trkpt lat="43.6464520" lon="-79.4110760">
    <ele>90.0</ele>
    <time>2021-03-10T22:31:59Z</time>
   </trkpt>
   <trkpt lat="43.6464380" lon="-79.4110670">
    <ele>90.0</ele>
    <time>2021-03-10T22:32:00Z</time>
   </trkpt>
   <trkpt lat="43.6464070" lon="-79.4110550">
    <ele>89.9</ele>
    <time>2021-03-10T22:32:01Z</time>
   </trkpt>
   <trkpt lat="43.6463790" lon="-79.4110450">
    <ele>89.9</ele>
    <time>2021-03-10T22:32:02Z</time>
   </trkpt>
   <trkpt lat="43.6463480" lon="-79.4110200">
    <ele>89.8</ele>
    <time>2021-03-10T22:32:03Z</time>
   </trkpt>
   <trkpt lat="43.6463310" lon="-79.4110150">
    <ele>89.8</ele>
    <time>2021-03-10T22:32:04Z</time>
   </trkpt>
   <trkpt lat="43.6462950" lon="-79.4110000">
    <ele>89.7</ele>
    <time>2021-03-10T22:32:05Z</time>
   </trkpt>
   <trkpt lat="43.6462540" lon="-79.4109760">
    <ele>89.6</ele>
    <time>2021-03-10T22:32:06Z</time>
   </trkpt>
   <trkpt lat="43.6462160" lon="-79.4109640">
    <ele>89.6</ele>
    <time>2021-03-10T22:32:07Z</time>
   </trkpt>
   <trkpt lat="43.6461710" lon="-79.4109560">
    <ele>89.4</ele>
    <time>2021-03-10T22:32:08Z</time>
   </trkpt>
   <trkpt lat="43.6461430" lon="-79.4109420">
    <ele>89.4</ele>
    <time>2021-03-10T22:32:09Z</time>
   </trkpt>
   <trkpt lat="43.6461110" lon="-79.4109310">
    <ele>89.3</ele>
    <time>2021-03-10T22:32:10Z</time>
   </trkpt>
   <trkpt lat="43.6460770" lon="-79.4109230">
    <ele>89.2</ele>
    <time>2021-03-10T22:32:11Z</time>
   </trkpt>
   <trkpt lat="43.6460640" lon="-79.4109230">
    <ele>89.1</ele>
    <time>2021-03-10T22:32:12Z</time>
   </trkpt>
   <trkpt lat="43.6460270" lon="-79.4109190">
    <ele>89.0</ele>
    <time>2021-03-10T22:32:13Z</time>
   </trkpt>
   <trkpt lat="43.6460130" lon="-79.4109190">
    <ele>89.0</ele>
    <time>2021-03-10T22:32:14Z</time>
   </trkpt>
   <trkpt lat="43.6459790" lon="-79.4109180">
    <ele>88.9</ele>
    <time>2021-03-10T22:32:15Z</time>
   </trkpt>
   <trkpt lat="43.6459470" lon="-79.4109260">
    <ele>88.7</ele>
    <time>2021-03-10T22:32:16Z</time>
   </trkpt>
   <trkpt lat="43.6459380" lon="-79.4109270">
    <ele>88.7</ele>
    <time>2021-03-10T22:32:17Z</time>
   </trkpt>
   <trkpt lat="43.6459100" lon="-79.4109570">
    <ele>88.7</ele>
    <time>2021-03-10T22:32:18Z</time>
   </trkpt>
   <trkpt lat="43.6459020" lon="-79.4109700">
    <ele>88.6</ele>
    <time>2021-03-10T22:32:19Z</time>
   </trkpt>
   <trkpt lat="43.6458870" lon="-79.4110110">
    <ele>88.6</ele>
    <time>2021-03-10T22:32:20Z</time>
   </trkpt>
   <trkpt lat="43.6458830" lon="-79.4110250">
    <ele>88.6</ele>
    <time>2021-03-10T22:32:21Z</time>
   </trkpt>
   <trkpt lat="43.6458680" lon="-79.4110620">
    <ele>88.5</ele>
    <time>2021-03-10T22:32:22Z</time>
   </trkpt>
   <trkpt lat="43.6458640" lon="-79.4110730">
    <ele>88.5</ele>
    <time>2021-03-10T22:32:23Z</time>
   </trkpt>
   <trkpt lat="43.6458480" lon="-79.4111180">
    <ele>88.5</ele>
    <time>2021-03-10T22:32:24Z</time>
   </trkpt>
   <trkpt lat="43.6458430" lon="-79.4111350">
    <ele>88.5</ele>
    <time>2021-03-10T22:32:25Z</time>
   </trkpt>
   <trkpt lat="43.6458370" lon="-79.4111750">
    <ele>88.5</ele>
    <time>2021-03-10T22:32:26Z</time>
   </trkpt>
   <trkpt lat="43.6458330" lon="-79.4112210">
    <ele>88.5</ele>
    <time>2021-03-10T22:32:27Z</time>
   </trkpt>
   <trkpt lat="43.6458230" lon="-79.4112650">
    <ele>88.4</ele>
    <time>2021-03-10T22:32:28Z</time>
   </trkpt>
   <trkpt lat="43.6458210" lon="-79.4113090">
    <ele>88.4</ele>
    <time>2021-03-10T22:32:29Z</time>
   </trkpt>
   <trkpt lat="43.6458210" lon="-79.4113260">
    <ele>88.4</ele>
    <time>2021-03-10T22:32:30Z</time>
   </trkpt>
   <trkpt lat="43.6458030" lon="-79.4113550">
    <ele>88.4</ele>
    <time>2021-03-10T22:32:31Z</time>
   </trkpt>
   <trkpt lat="43.6457830" lon="-79.4113970">
    <ele>88.4</ele>
    <time>2021-03-10T22:32:32Z</time>
   </trkpt>
   <trkpt lat="43.6457810" lon="-79.4114160">
    <ele>88.4</ele>
    <time>2021-03-10T22:32:33Z</time>
   </trkpt>
   <trkpt lat="43.6457820" lon="-79.4114590">
    <ele>88.4</ele>
    <time>2021-03-10T22:32:34Z</time>
   </trkpt>
   <trkpt lat="43.6457790" lon="-79.4114970">
    <ele>88.4</ele>
    <time>2021-03-10T22:32:35Z</time>
   </trkpt>
   <trkpt lat="43.6457710" lon="-79.4115440">
    <ele>88.5</ele>
    <time>2021-03-10T22:32:36Z</time>
   </trkpt>
   <trkpt lat="43.6457670" lon="-79.4115590">
    <ele>88.5</ele>
    <time>2021-03-10T22:32:37Z</time>
   </trkpt>
   <trkpt lat="43.6457780" lon="-79.4115930">
    <ele>88.6</ele>
    <time>2021-03-10T22:32:38Z</time>
   </trkpt>
   <trkpt lat="43.6457810" lon="-79.4116080">
    <ele>88.7</ele>
    <time>2021-03-10T22:32:39Z</time>
   </trkpt>
   <trkpt lat="43.6457800" lon="-79.4116540">
    <ele>88.8</ele>
    <time>2021-03-10T22:32:40Z</time>
   </trkpt>
   <trkpt lat="43.6457780" lon="-79.4116630">
    <ele>88.8</ele>
    <time>2021-03-10T22:32:41Z</time>
   </trkpt>
   <trkpt lat="43.6457710" lon="-79.4116810">
    <ele>88.9</ele>
    <time>2021-03-10T22:32:42Z</time>
   </trkpt>
   <trkpt lat="43.6457720" lon="-79.4117100">
    <ele>89.0</ele>
    <time>2021-03-10T22:32:43Z</time>
   </trkpt>
   <trkpt lat="43.6457750" lon="-79.4117400">
    <ele>89.1</ele>
    <time>2021-03-10T22:32:44Z</time>
   </trkpt>
   <trkpt lat="43.6457750" lon="-79.4117560">
    <ele>89.2</ele>
    <time>2021-03-10T22:32:45Z</time>
   </trkpt>
   <trkpt lat="43.6457760" lon="-79.4117720">
    <ele>89.2</ele>
    <time>2021-03-10T22:32:46Z</time>
   </trkpt>
   <trkpt lat="43.6457880" lon="-79.4118210">
    <ele>89.4</ele>
    <time>2021-03-10T22:32:47Z</time>
   </trkpt>
   <trkpt lat="43.6457900" lon="-79.4118380">
    <ele>89.5</ele>
    <time>2021-03-10T22:32:48Z</time>
   </trkpt>
   <trkpt lat="43.6458040" lon="-79.4118820">
    <ele>89.6</ele>
    <time>2021-03-10T22:32:49Z</time>
   </trkpt>
   <trkpt lat="43.6458050" lon="-79.4118960">
    <ele>89.6</ele>
    <time>2021-03-10T22:32:50Z</time>
   </trkpt>
   <trkpt lat="43.6458190" lon="-79.4119320">
    <ele>89.7</ele>
    <time>2021-03-10T22:32:51Z</time>
   </trkpt>
   <trkpt lat="43.6458260" lon="-79.4119420">
    <ele>89.8</ele>
    <time>2021-03-10T22:32:52Z</time>
   </trkpt>
   <trkpt lat="43.6458380" lon="-79.4119840">
    <ele>89.9</ele>
    <time>2021-03-10T22:32:53Z</time>
   </trkpt>
   <trkpt lat="43.6458640" lon="-79.4120240">
    <ele>90.0</ele>
    <time>2021-03-10T22:32:54Z</time>
   </trkpt>
   <trkpt lat="43.6458740" lon="-79.4120370">
    <ele>90.0</ele>
    <time>2021-03-10T22:32:55Z</time>
   </trkpt>
   <trkpt lat="43.6459040" lon="-79.4120590">
    <ele>90.1</ele>
    <time>2021-03-10T22:32:56Z</time>
   </trkpt>
   <trkpt lat="43.6459050" lon="-79.4120780">
    <ele>90.1</ele>
    <time>2021-03-10T22:32:57Z</time>
   </trkpt>
   <trkpt lat="43.6459140" lon="-79.4121070">
    <ele>90.2</ele>
    <time>2021-03-10T22:32:58Z</time>
   </trkpt>
   <trkpt lat="43.6459390" lon="-79.4121400">
    <ele>90.3</ele>
    <time>2021-03-10T22:32:59Z</time>
   </trkpt>
   <trkpt lat="43.6459550" lon="-79.4121890">
    <ele>90.4</ele>
    <time>2021-03-10T22:33:00Z</time>
   </trkpt>
   <trkpt lat="43.6459600" lon="-79.4122040">
    <ele>90.4</ele>
    <time>2021-03-10T22:33:01Z</time>
   </trkpt>
   <trkpt lat="43.6459720" lon="-79.4122470">
    <ele>90.5</ele>
    <time>2021-03-10T22:33:02Z</time>
   </trkpt>
   <trkpt lat="43.6459750" lon="-79.4122650">
    <ele>90.5</ele>
    <time>2021-03-10T22:33:03Z</time>
   </trkpt>
   <trkpt lat="43.6459830" lon="-79.4123020">
    <ele>90.6</ele>
    <time>2021-03-10T22:33:04Z</time>
   </trkpt>
   <trkpt lat="43.6459990" lon="-79.4123520">
    <ele>90.6</ele>
    <time>2021-03-10T22:33:05Z</time>
   </trkpt>
   <trkpt lat="43.6460070" lon="-79.4123710">
    <ele>90.7</ele>
    <time>2021-03-10T22:33:06Z</time>
   </trkpt>
   <trkpt lat="43.6460180" lon="-79.4124110">
    <ele>90.7</ele>
    <time>2021-03-10T22:33:07Z</time>
   </trkpt>
   <trkpt lat="43.6460330" lon="-79.4124590">
    <ele>90.7</ele>
    <time>2021-03-10T22:33:08Z</time>
   </trkpt>
   <trkpt lat="43.6460340" lon="-79.4124760">
    <ele>90.8</ele>
    <time>2021-03-10T22:33:09Z</time>
   </trkpt>
   <trkpt lat="43.6460420" lon="-79.4125270">
    <ele>90.8</ele>
    <time>2021-03-10T22:33:10Z</time>
   </trkpt>
   <trkpt lat="43.6460470" lon="-79.4125460">
    <ele>90.8</ele>
    <time>2021-03-10T22:33:11Z</time>
   </trkpt>
   <trkpt lat="43.6460690" lon="-79.4125860">
    <ele>90.9</ele>
    <time>2021-03-10T22:33:12Z</time>
   </trkpt>
   <trkpt lat="43.6460790" lon="-79.4125990">
    <ele>90.9</ele>
    <time>2021-03-10T22:33:13Z</time>
   </trkpt>
   <trkpt lat="43.6460900" lon="-79.4126520">
    <ele>90.9</ele>
    <time>2021-03-10T22:33:14Z</time>
   </trkpt>
   <trkpt lat="43.6460930" lon="-79.4126730">
    <ele>90.9</ele>
    <time>2021-03-10T22:33:15Z</time>
   </trkpt>
   <trkpt lat="43.6461180" lon="-79.4126910">
    <ele>91.0</ele>
    <time>2021-03-10T22:33:16Z</time>
   </trkpt>
   <trkpt lat="43.6461300" lon="-79.4126930">
    <ele>91.0</ele>
    <time>2021-03-10T22:33:17Z</time>
   </trkpt>
   <trkpt lat="43.6461580" lon="-79.4126980">
    <ele>91.0</ele>
    <time>2021-03-10T22:33:18Z</time>
   </trkpt>
   <trkpt lat="43.6461830" lon="-79.4127190">
    <ele>91.0</ele>
    <time>2021-03-10T22:33:19Z</time>
   </trkpt>
   <trkpt lat="43.6462120" lon="-79.4127510">
    <ele>91.1</ele>
    <time>2021-03-10T22:33:20Z</time>
   </trkpt>
   <trkpt lat="43.6462200" lon="-79.4127600">
    <ele>91.1</ele>
    <time>2021-03-10T22:33:21Z</time>
   </trkpt>
   <trkpt lat="43.6462460" lon="-79.4127750">
    <ele>91.1</ele>
    <time>2021-03-10T22:33:22Z</time>
   </trkpt>
   <trkpt lat="43.6462700" lon="-79.4127910">
    <ele>91.5</ele>
    <time>2021-03-10T22:33:23Z</time>
   </trkpt>
   <trkpt lat="43.6462940" lon="-79.4128110">
    <ele>91.5</ele>
    <time>2021-03-10T22:33:24Z</time>
   </trkpt>
   <trkpt lat="43.6463180" lon="-79.4128330">
    <ele>91.5</ele>
    <time>2021-03-10T22:33:25Z</time>
   </trkpt>
   <trkpt lat="43.6463380" lon="-79.4128630">
    <ele>91.6</ele>
    <time>2021-03-10T22:33:26Z</time>
   </trkpt>
   <trkpt lat="43.6463610" lon="-79.4128860">
    <ele>91.6</ele>
    <time>2021-03-10T22:33:27Z</time>
   </trkpt>
   <trkpt lat="43.6463950" lon="-79.4129030">
    <ele>91.6</ele>
    <time>2021-03-10T22:33:28Z</time>
   </trkpt>
   <trkpt lat="43.6464030" lon="-79.4129110">
    <ele>91.6</ele>
    <time>2021-03-10T22:33:29Z</time>
   </trkpt>
   <trkpt lat="43.6464400" lon="-79.4129130">
    <ele>91.7</ele>
    <time>2021-03-10T22:33:30Z</time>
   </trkpt>
   <trkpt lat="43.6464530" lon="-79.4129100">
    <ele>91.7</ele>
    <time>2021-03-10T22:33:31Z</time>
   </trkpt>
   <trkpt lat="43.6464920" lon="-79.4129180">
    <ele>91.7</ele>
    <time>2021-03-10T22:33:32Z</time>
   </trkpt>
   <trkpt lat="43.6465080" lon="-79.4129210">
    <ele>91.7</ele>
    <time>2021-03-10T22:33:33Z</time>
   </trkpt>
   <trkpt lat="43.6465440" lon="-79.4129350">
    <ele>91.7</ele>
    <time>2021-03-10T22:33:34Z</time>
   </trkpt>
   <trkpt lat="43.6465570" lon="-79.4129380">
    <ele>91.7</ele>
    <time>2021-03-10T22:33:35Z</time>
   </trkpt>
   <trkpt lat="43.6465820" lon="-79.4129490">
    <ele>91.8</ele>
    <time>2021-03-10T22:33:36Z</time>
   </trkpt>
   <trkpt lat="43.6466130" lon="-79.4129620">
    <ele>91.8</ele>
    <time>2021-03-10T22:33:37Z</time>
   </trkpt>
   <trkpt lat="43.6466410" lon="-79.4129710">
    <ele>91.8</ele>
    <time>2021-03-10T22:33:38Z</time>
   </trkpt>
   <trkpt lat="43.6466730" lon="-79.4129900">
    <ele>91.8</ele>
    <time>2021-03-10T22:33:39Z</time>
   </trkpt>
   <trkpt lat="43.6466830" lon="-79.4129980">
    <ele>91.8</ele>
    <time>2021-03-10T22:33:40Z</time>
   </trkpt>
   <trkpt lat="43.6467140" lon="-79.4130110">
    <ele>91.9</ele>
    <time>2021-03-10T22:33:41Z</time>
   </trkpt>
   <trkpt lat="43.6467250" lon="-79.4130170">
    <ele>91.9</ele>
    <time>2021-03-10T22:33:42Z</time>
   </trkpt>
   <trkpt lat="43.6467570" lon="-79.4130210">
    <ele>91.9</ele>
    <time>2021-03-10T22:33:43Z</time>
   </trkpt>
   <trkpt lat="43.6467660" lon="-79.4130260">
    <ele>91.9</ele>
    <time>2021-03-10T22:33:44Z</time>
   </trkpt>
   <trkpt lat="43.6467930" lon="-79.4130530">
    <ele>91.9</ele>
    <time>2021-03-10T22:33:45Z</time>
   </trkpt>
   <trkpt lat="43.6468010" lon="-79.4130670">
    <ele>91.9</ele>
    <time>2021-03-10T22:33:46Z</time>
   </trkpt>
   <trkpt lat="43.6468220" lon="-79.4131080">
    <ele>92.0</ele>
    <time>2021-03-10T22:33:47Z</time>
   </trkpt>
   <trkpt lat="43.6468280" lon="-79.4131250">
    <ele>92.0</ele>
    <time>2021-03-10T22:33:48Z</time>
   </trkpt>
   <trkpt lat="43.6468440" lon="-79.4131550">
    <ele>92.0</ele>
    <time>2021-03-10T22:33:49Z</time>
   </trkpt>
   <trkpt lat="43.6468710" lon="-79.4131880">
    <ele>92.0</ele>
    <time>2021-03-10T22:33:50Z</time>
   </trkpt>
   <trkpt lat="43.6468780" lon="-79.4131990">
    <ele>92.0</ele>
    <time>2021-03-10T22:33:51Z</time>
   </trkpt>
   <trkpt lat="43.6468980" lon="-79.4132450">
    <ele>92.1</ele>
    <time>2021-03-10T22:33:52Z</time>
   </trkpt>
   <trkpt lat="43.6469040" lon="-79.4132610">
    <ele>92.1</ele>
    <time>2021-03-10T22:33:53Z</time>
   </trkpt>
   <trkpt lat="43.6469260" lon="-79.4133040">
    <ele>92.1</ele>
    <time>2021-03-10T22:33:54Z</time>
   </trkpt>
   <trkpt lat="43.6469340" lon="-79.4133170">
    <ele>92.2</ele>
    <time>2021-03-10T22:33:55Z</time>
   </trkpt>
   <trkpt lat="43.6469510" lon="-79.4133660">
    <ele>92.2</ele>
    <time>2021-03-10T22:33:56Z</time>
   </trkpt>
   <trkpt lat="43.6469550" lon="-79.4133830">
    <ele>92.2</ele>
    <time>2021-03-10T22:33:57Z</time>
   </trkpt>
   <trkpt lat="43.6469670" lon="-79.4134270">
    <ele>92.3</ele>
    <time>2021-03-10T22:33:58Z</time>
   </trkpt>
   <trkpt lat="43.6469700" lon="-79.4134440">
    <ele>92.3</ele>
    <time>2021-03-10T22:33:59Z</time>
   </trkpt>
   <trkpt lat="43.6469770" lon="-79.4134950">
    <ele>92.4</ele>
    <time>2021-03-10T22:34:00Z</time>
   </trkpt>
   <trkpt lat="43.6469790" lon="-79.4135170">
    <ele>92.4</ele>
    <time>2021-03-10T22:34:01Z</time>
   </trkpt>
   <trkpt lat="43.6469840" lon="-79.4135560">
    <ele>92.4</ele>
    <time>2021-03-10T22:34:02Z</time>
   </trkpt>
   <trkpt lat="43.6469900" lon="-79.4135990">
    <ele>92.5</ele>
    <time>2021-03-10T22:34:03Z</time>
   </trkpt>
   <trkpt lat="43.6469830" lon="-79.4136500">
    <ele>92.5</ele>
    <time>2021-03-10T22:34:04Z</time>
   </trkpt>
   <trkpt lat="43.6469830" lon="-79.4136940">
    <ele>92.6</ele>
    <time>2021-03-10T22:34:05Z</time>
   </trkpt>
   <trkpt lat="43.6469810" lon="-79.4137370">
    <ele>92.6</ele>
    <time>2021-03-10T22:34:06Z</time>
   </trkpt>
   <trkpt lat="43.6469700" lon="-79.4137780">
    <ele>92.6</ele>
    <time>2021-03-10T22:34:07Z</time>
   </trkpt>
   <trkpt lat="43.6469640" lon="-79.4138200">
    <ele>92.6</ele>
    <time>2021-03-10T22:34:08Z</time>
   </trkpt>
   <trkpt lat="43.6469550" lon="-79.4138560">
    <ele>92.7</ele>
    <time>2021-03-10T22:34:09Z</time>
   </trkpt>
   <trkpt lat="43.6469530" lon="-79.4139020">
    <ele>92.7</ele>
    <time>2021-03-10T22:34:10Z</time>
   </trkpt>
   <trkpt lat="43.6469540" lon="-79.4139200">
    <ele>92.7</ele>
    <time>2021-03-10T22:34:11Z</time>
   </trkpt>
   <trkpt lat="43.6469380" lon="-79.4139650">
    <ele>92.7</ele>
    <time>2021-03-10T22:34:12Z</time>
   </trkpt>
   <trkpt lat="43.6469280" lon="-79.4139780">
    <ele>92.7</ele>
    <time>2021-03-10T22:34:13Z</time>
   </trkpt>
   <trkpt lat="43.6469090" lon="-79.4140280">
    <ele>92.6</ele>
    <time>2021-03-10T22:34:14Z</time>
   </trkpt>
   <trkpt lat="43.6469030" lon="-79.4140470">
    <ele>92.6</ele>
    <time>2021-03-10T22:34:15Z</time>
   </trkpt>
   <trkpt lat="43.6469130" lon="-79.4141000">
    <ele>92.6</ele>
    <time>2021-03-10T22:34:16Z</time>
   </trkpt>
   <trkpt lat="43.6469220" lon="-79.4141250">
    <ele>92.6</ele>
    <time>2021-03-10T22:34:17Z</time>
   </trkpt>
   <trkpt lat="43.6469190" lon="-79.4141740">
    <ele>92.6</ele>
    <time>2021-03-10T22:34:18Z</time>
   </trkpt>
   <trkpt lat="43.6469150" lon="-79.4141940">
    <ele>92.6</ele>
    <time>2021-03-10T22:34:19Z</time>
   </trkpt>
   <trkpt lat="43.6469210" lon="-79.4142340">
    <ele>92.6</ele>
    <time>2021-03-10T22:34:20Z</time>
   </trkpt>
   <trkpt lat="43.6469260" lon="-79.4142430">
    <ele>92.6</ele>
    <time>2021-03-10T22:34:21Z</time>
   </trkpt>
   <trkpt lat="43.6469260" lon="-79.4142890">
    <ele>92.5</ele>
    <time>2021-03-10T22:34:22Z</time>
   </trkpt>
   <trkpt lat="43.6469300" lon="-79.4143300">
    <ele>92.4</ele>
    <time>2021-03-10T22:34:23Z</time>
   </trkpt>
   <trkpt lat="43.6469460" lon="-79.4143650">
    <ele>92.3</ele>
    <time>2021-03-10T22:34:24Z</time>
   </trkpt>
   <trkpt lat="43.6469650" lon="-79.4144080">
    <ele>92.2</ele>
    <time>2021-03-10T22:34:25Z</time>
   </trkpt>
   <trkpt lat="43.6469720" lon="-79.4144280">
    <ele>92.2</ele>
    <time>2021-03-10T22:34:26Z</time>
   </trkpt>
   <trkpt lat="43.6469850" lon="-79.4144680">
    <ele>92.0</ele>
    <time>2021-03-10T22:34:27Z</time>
   </trkpt>
   <trkpt lat="43.6469890" lon="-79.4144840">
    <ele>92.0</ele>
    <time>2021-03-10T22:34:28Z</time>
   </trkpt>
   <trkpt lat="43.6470090" lon="-79.4144920">
    <ele>91.9</ele>
    <time>2021-03-10T22:34:29Z</time>
   </trkpt>
   <trkpt lat="43.6470210" lon="-79.4144970">
    <ele>91.9</ele>
    <time>2021-03-10T22:34:30Z</time>
   </trkpt>
   <trkpt lat="43.6470330" lon="-79.4145010">
    <ele>91.9</ele>
    <time>2021-03-10T22:34:31Z</time>
   </trkpt>
   <trkpt lat="43.6470640" lon="-79.4145130">
    <ele>91.7</ele>
    <time>2021-03-10T22:34:32Z</time>
   </trkpt>
   <trkpt lat="43.6470740" lon="-79.4145180">
    <ele>91.6</ele>
    <time>2021-03-10T22:34:33Z</time>
   </trkpt>
   <trkpt lat="43.6471030" lon="-79.4145210">
    <ele>91.6</ele>
    <time>2021-03-10T22:34:34Z</time>
   </trkpt>
   <trkpt lat="43.6471130" lon="-79.4145230">
    <ele>91.6</ele>
    <time>2021-03-10T22:34:35Z</time>
   </trkpt>
   <trkpt lat="43.6471430" lon="-79.4145330">
    <ele>91.6</ele>
    <time>2021-03-10T22:34:36Z</time>
   </trkpt>
   <trkpt lat="43.6471550" lon="-79.4145390">
    <ele>91.6</ele>
    <time>2021-03-10T22:34:37Z</time>
   </trkpt>
   <trkpt lat="43.6471860" lon="-79.4145480">
    <ele>91.6</ele>
    <time>2021-03-10T22:34:38Z</time>
   </trkpt>
   <trkpt lat="43.6471950" lon="-79.4145560">
    <ele>91.7</ele>
    <time>2021-03-10T22:34:39Z</time>
   </trkpt>
   <trkpt lat="43.6472260" lon="-79.4145700">
    <ele>91.7</ele>
    <time>2021-03-10T22:34:40Z</time>
   </trkpt>
   <trkpt lat="43.6472350" lon="-79.4145760">
    <ele>91.7</ele>
    <time>2021-03-10T22:34:41Z</time>
   </trkpt>
  </trkseg>
 </trk>
</gpx>
